{"type":"FeatureCollection","features":[{"type":"Feature","properties":{"osmId":"node/10605408146","kind":"entrance","name":null,"check_date":null,"wheelchair":null,"inAcademicArea":false,"tags":"{\"entrance\":\"yes\"}","notes":null,"photo":null},"geometry":{"type":"Point","coordinates":[80.228988,26.504825]}},{"type":"Feature","properties":{"osmId":"node/10740508460","kind":"entrance","name":null,"check_date":null,"wheelchair":null,"inAcademicArea":false,"tags":"{\"entrance\":\"yes\"}","notes":null,"photo":null},"geometry":{"type":"Point","coordinates":[80.228482,26.504084]}},{"type":"Feature","properties":{"osmId":"node/4316938706","kind":"crossing","name":null,"check_date":null,"wheelchair":null,"inAcademicArea":false,"tags":"{\"highway\":\"crossing\"}","notes":null,"photo":null},"geometry":{"type":"Point","coordinates":[80.233054,26.504218]}},{"type":"Feature","properties":{"osmId":"node/10583124829","kind":"entrance","name":null,"check_date":null,"wheelchair":null,"inAcademicArea":false,"tags":"{\"entrance\":\"yes\"}","notes":null,"photo":null},"geometry":{"type":"Point","coordinates":[80.233506,26.505741]}},{"type":"Feature","properties":{"osmId":"node/10605408143","kind":"drinking_water","name":null,"check_date":null,"wheelchair":null,"inAcademicArea":false,"tags":"{\"amenity\":\"drinking_water\",\"man_made\":\"water_tap\"}","notes":null,"photo":null},"geometry":{"type":"Point","coordinates":[80.229179,26.504977]}},{"type":"Feature","properties":{"osmId":"node/10605408144","kind":"toilets","name":null,"check_date":null,"wheelchair":null,"inAcademicArea":false,"tags":"{\"amenity\":\"toilets\",\"male\":\"yes\"}","notes":null,"photo":null},"geometry":{"type":"Point","coordinates":[80.229173,26.504967]}},{"type":"Feature","properties":{"osmId":"node/10605408145","kind":"entrance","name":null,"check_date":null,"wheelchair":null,"inAcademicArea":false,"tags":"{\"entrance\":\"main\"}","notes":null,"photo":null},"geometry":{"type":"Point","coordinates":[80.229892,26.505265]}},{"type":"Feature","properties":{"osmId":"node/10605449483","kind":"entrance","name":null,"check_date":null,"wheelchair":null,"inAcademicArea":false,"tags":"{\"entrance\":\"main\"}","notes":null,"photo":null},"geometry":{"type":"Point","coordinates":[80.234559,26.504737]}},{"type":"Feature","properties":{"osmId":"node/10740508459","kind":"entrance","name":null,"check_date":null,"wheelchair":null,"inAcademicArea":false,"tags":"{\"entrance\":\"yes\"}","notes":null,"photo":null},"geometry":{"type":"Point","coordinates":[80.229703,26.50451]}},{"type":"Feature","properties":{"osmId":"node/13647856520","kind":"entrance","name":null,"check_date":null,"wheelchair":null,"inAcademicArea":false,"tags":"{\"entrance\":\"yes\"}","notes":null,"photo":null},"geometry":{"type":"Point","coordinates":[80.229793,26.505264]}},{"type":"Feature","properties":{"osmId":"node/2993038944","kind":"entrance","name":null,"check_date":null,"wheelchair":null,"inAcademicArea":false,"tags":"{\"entrance\":\"yes\"}","notes":null,"photo":null},"geometry":{"type":"Point","coordinates":[80.236676,26.504861]}},{"type":"Feature","properties":{"osmId":"node/2993038945","kind":"entrance","name":null,"check_date":null,"wheelchair":null,"inAcademicArea":false,"tags":"{\"entrance\":\"yes\"}","notes":null,"photo":null},"geometry":{"type":"Point","coordinates":[80.236696,26.504861]}},{"type":"Feature","properties":{"osmId":"node/10796940660","kind":"entrance","name":null,"check_date":null,"wheelchair":null,"inAcademicArea":false,"tags":"{\"entrance\":\"yes\"}","notes":null,"photo":null},"geometry":{"type":"Point","coordinates":[80.236155,26.504846]}},{"type":"Feature","properties":{"osmId":"node/10796940662","kind":"entrance","name":null,"check_date":null,"wheelchair":null,"inAcademicArea":false,"tags":"{\"entrance\":\"yes\"}","notes":null,"photo":null},"geometry":{"type":"Point","coordinates":[80.236175,26.504846]}},{"type":"Feature","properties":{"osmId":"node/10796940670","kind":"entrance","name":null,"check_date":null,"wheelchair":null,"inAcademicArea":false,"tags":"{\"entrance\":\"yes\"}","notes":null,"photo":null},"geometry":{"type":"Point","coordinates":[80.23576,26.504858]}},{"type":"Feature","properties":{"osmId":"node/10796940672","kind":"entrance","name":null,"check_date":null,"wheelchair":null,"inAcademicArea":false,"tags":"{\"entrance\":\"yes\"}","notes":null,"photo":null},"geometry":{"type":"Point","coordinates":[80.23578,26.504858]}},{"type":"Feature","properties":{"osmId":"node/10796940680","kind":"entrance","name":null,"check_date":null,"wheelchair":null,"inAcademicArea":false,"tags":"{\"entrance\":\"yes\"}","notes":null,"photo":null},"geometry":{"type":"Point","coordinates":[80.236153,26.504469]}},{"type":"Feature","properties":{"osmId":"node/10796940682","kind":"entrance","name":null,"check_date":null,"wheelchair":null,"inAcademicArea":false,"tags":"{\"entrance\":\"yes\"}","notes":null,"photo":null},"geometry":{"type":"Point","coordinates":[80.236173,26.504469]}},{"type":"Feature","properties":{"osmId":"node/10796940690","kind":"entrance","name":null,"check_date":null,"wheelchair":null,"inAcademicArea":false,"tags":"{\"entrance\":\"yes\"}","notes":null,"photo":null},"geometry":{"type":"Point","coordinates":[80.235775,26.504437]}},{"type":"Feature","properties":{"osmId":"node/10796940692","kind":"entrance","name":null,"check_date":null,"wheelchair":null,"inAcademicArea":false,"tags":"{\"entrance\":\"yes\"}","notes":null,"photo":null},"geometry":{"type":"Point","coordinates":[80.235795,26.504437]}},{"type":"Feature","properties":{"osmId":"node/10796940697","kind":"entrance","name":null,"check_date":null,"wheelchair":null,"inAcademicArea":false,"tags":"{\"entrance\":\"yes\"}","notes":null,"photo":null},"geometry":{"type":"Point","coordinates":[80.235788,26.504012]}},{"type":"Feature","properties":{"osmId":"node/10796978605","kind":"entrance","name":null,"check_date":null,"wheelchair":null,"inAcademicArea":false,"tags":"{\"entrance\":\"yes\"}","notes":null,"photo":null},"geometry":{"type":"Point","coordinates":[80.235768,26.504012]}},{"type":"Feature","properties":{"osmId":"node/10583209415","kind":"toilets","name":null,"check_date":null,"wheelchair":null,"inAcademicArea":false,"tags":"{\"amenity\":\"toilets\",\"female\":\"yes\"}","notes":null,"photo":null},"geometry":{"type":"Point","coordinates":[80.2281,26.509432]}},{"type":"Feature","properties":{"osmId":"node/10583209416","kind":"toilets","name":null,"check_date":null,"wheelchair":null,"inAcademicArea":false,"tags":"{\"amenity\":\"toilets\",\"female\":\"yes\"}","notes":null,"photo":null},"geometry":{"type":"Point","coordinates":[80.226384,26.506085]}},{"type":"Feature","properties":{"osmId":"node/10605449472","kind":"entrance","name":null,"check_date":null,"wheelchair":null,"inAcademicArea":false,"tags":"{\"entrance\":\"main\"}","notes":null,"photo":null},"geometry":{"type":"Point","coordinates":[80.229023,26.509678]}},{"type":"Feature","properties":{"osmId":"node/10605449478","kind":"entrance","name":null,"check_date":null,"wheelchair":null,"inAcademicArea":false,"tags":"{\"entrance\":\"main\"}","notes":null,"photo":null},"geometry":{"type":"Point","coordinates":[80.228848,26.506471]}},{"type":"Feature","properties":{"osmId":"node/10775939733","kind":"entrance","name":null,"check_date":null,"wheelchair":null,"inAcademicArea":false,"tags":"{\"entrance\":\"main\"}","notes":null,"photo":null},"geometry":{"type":"Point","coordinates":[80.228287,26.511845]}},{"type":"Feature","properties":{"osmId":"node/10803686709","kind":"drinking_water","name":null,"check_date":null,"wheelchair":null,"inAcademicArea":false,"tags":"{\"amenity\":\"drinking_water\",\"bottle\":\"yes\",\"fee\":\"no\"}","notes":null,"photo":null},"geometry":{"type":"Point","coordinates":[80.228615,26.510103]}},{"type":"Feature","properties":{"osmId":"node/10803686710","kind":"drinking_water","name":null,"check_date":null,"wheelchair":null,"inAcademicArea":false,"tags":"{\"amenity\":\"drinking_water\",\"bottle\":\"yes\",\"fee\":\"no\"}","notes":null,"photo":null},"geometry":{"type":"Point","coordinates":[80.228113,26.510024]}},{"type":"Feature","properties":{"osmId":"node/683476020","kind":"crossing","name":null,"check_date":null,"wheelchair":null,"inAcademicArea":false,"tags":"{\"highway\":\"crossing\"}","notes":null,"photo":null},"geometry":{"type":"Point","coordinates":[80.230752,26.508073]}},{"type":"Feature","properties":{"osmId":"node/2734116498","kind":"entrance","name":null,"check_date":null,"wheelchair":null,"inAcademicArea":true,"tags":"{\"entrance\":\"yes\",\"indoor\":\"door\",\"level\":\"0\"}","notes":null,"photo":null},"geometry":{"type":"Point","coordinates":[80.232578,26.510935]}},{"type":"Feature","properties":{"osmId":"node/9058008322","kind":"crossing","name":null,"check_date":null,"wheelchair":null,"inAcademicArea":true,"tags":"{\"highway\":\"crossing\"}","notes":null,"photo":null},"geometry":{"type":"Point","coordinates":[80.232367,26.512376]}},{"type":"Feature","properties":{"osmId":"node/10605366657","kind":"toilets","name":null,"check_date":null,"wheelchair":null,"inAcademicArea":true,"tags":"{\"amenity\":\"toilets\"}","notes":null,"photo":null},"geometry":{"type":"Point","coordinates":[80.233149,26.51085]}},{"type":"Feature","properties":{"osmId":"node/10605449473","kind":"entrance","name":null,"check_date":null,"wheelchair":null,"inAcademicArea":true,"tags":"{\"entrance\":\"main\"}","notes":null,"photo":null},"geometry":{"type":"Point","coordinates":[80.230661,26.510607]}},{"type":"Feature","properties":{"osmId":"node/10605449474","kind":"entrance","name":null,"check_date":null,"wheelchair":null,"inAcademicArea":false,"tags":"{\"entrance\":\"main\"}","notes":null,"photo":null},"geometry":{"type":"Point","coordinates":[80.230837,26.509463]}},{"type":"Feature","properties":{"osmId":"node/10605449475","kind":"entrance","name":null,"check_date":null,"wheelchair":null,"inAcademicArea":false,"tags":"{\"entrance\":\"yes\"}","notes":null,"photo":null},"geometry":{"type":"Point","coordinates":[80.232659,26.509699]}},{"type":"Feature","properties":{"osmId":"node/10605449476","kind":"entrance","name":null,"check_date":null,"wheelchair":null,"inAcademicArea":false,"tags":"{\"entrance\":\"main\"}","notes":null,"photo":null},"geometry":{"type":"Point","coordinates":[80.230682,26.508375]}},{"type":"Feature","properties":{"osmId":"node/10605449477","kind":"entrance","name":null,"check_date":null,"wheelchair":null,"inAcademicArea":false,"tags":"{\"entrance\":\"yes\"}","notes":null,"photo":null},"geometry":{"type":"Point","coordinates":[80.230824,26.507061]}},{"type":"Feature","properties":{"osmId":"node/10605449480","kind":"entrance","name":null,"check_date":null,"wheelchair":null,"inAcademicArea":false,"tags":"{\"entrance\":\"main\"}","notes":null,"photo":null},"geometry":{"type":"Point","coordinates":[80.232992,26.507942]}},{"type":"Feature","properties":{"osmId":"node/10605449486","kind":"entrance","name":null,"check_date":null,"wheelchair":null,"inAcademicArea":false,"tags":"{\"entrance\":\"yes\"}","notes":null,"photo":null},"geometry":{"type":"Point","coordinates":[80.232723,26.507048]}},{"type":"Feature","properties":{"osmId":"node/10605449494","kind":"entrance","name":null,"check_date":null,"wheelchair":null,"inAcademicArea":false,"tags":"{\"entrance\":\"main\"}","notes":null,"photo":null},"geometry":{"type":"Point","coordinates":[80.232804,26.509186]}},{"type":"Feature","properties":{"osmId":"node/10605449495","kind":"entrance","name":null,"check_date":null,"wheelchair":null,"inAcademicArea":false,"tags":"{\"entrance\":\"main\"}","notes":null,"photo":null},"geometry":{"type":"Point","coordinates":[80.231258,26.508105]}},{"type":"Feature","properties":{"osmId":"node/10656632243","kind":"toilets","name":null,"check_date":null,"wheelchair":null,"inAcademicArea":false,"tags":"{\"amenity\":\"toilets\"}","notes":null,"photo":null},"geometry":{"type":"Point","coordinates":[80.232961,26.508973]}},{"type":"Feature","properties":{"osmId":"node/13657840007","kind":"entrance","name":null,"check_date":null,"wheelchair":null,"inAcademicArea":true,"tags":"{\"entrance\":\"main\",\"indoor\":\"door\",\"level\":\"1\"}","notes":null,"photo":null},"geometry":{"type":"Point","coordinates":[80.232388,26.511141]}},{"type":"Feature","properties":{"osmId":"node/13657840088","kind":"entrance","name":null,"check_date":null,"wheelchair":null,"inAcademicArea":true,"tags":"{\"entrance\":\"main\",\"indoor\":\"door\",\"level\":\"0\"}","notes":null,"photo":null},"geometry":{"type":"Point","coordinates":[80.232388,26.511141]}},{"type":"Feature","properties":{"osmId":"node/2734619313","kind":"toilets","name":null,"check_date":null,"wheelchair":null,"inAcademicArea":true,"tags":"{\"amenity\":\"toilets\"}","notes":null,"photo":null},"geometry":{"type":"Point","coordinates":[80.236265,26.511768]}},{"type":"Feature","properties":{"osmId":"node/4316878454","kind":"entrance","name":null,"check_date":null,"wheelchair":null,"inAcademicArea":true,"tags":"{\"entrance\":\"yes\"}","notes":null,"photo":null},"geometry":{"type":"Point","coordinates":[80.237344,26.509754]}},{"type":"Feature","properties":{"osmId":"node/8814004101","kind":"entrance","name":null,"check_date":null,"wheelchair":null,"inAcademicArea":false,"tags":"{\"entrance\":\"yes\"}","notes":null,"photo":null},"geometry":{"type":"Point","coordinates":[80.238662,26.507184]}},{"type":"Feature","properties":{"osmId":"node/10562586748","kind":"drinking_water","name":null,"check_date":null,"wheelchair":null,"inAcademicArea":true,"tags":"{\"amenity\":\"drinking_water\"}","notes":null,"photo":null},"geometry":{"type":"Point","coordinates":[80.236029,26.511762]}},{"type":"Feature","properties":{"osmId":"node/10583184901","kind":"entrance","name":null,"check_date":null,"wheelchair":null,"inAcademicArea":false,"tags":"{\"addr:city\":\"Kanpur\",\"addr:housenumber\":\"333 Type 3\",\"addr:postcode\":\"208016\",\"entrance\":\"home\"}","notes":null,"photo":null},"geometry":{"type":"Point","coordinates":[80.241297,26.510878]}},{"type":"Feature","properties":{"osmId":"node/10583184902","kind":"entrance","name":null,"check_date":null,"wheelchair":null,"inAcademicArea":false,"tags":"{\"addr:city\":\"Kanpur\",\"addr:housenumber\":\"334 Type 3\",\"addr:postcode\":\"208016\",\"entrance\":\"home\"}","notes":null,"photo":null},"geometry":{"type":"Point","coordinates":[80.241296,26.510954]}},{"type":"Feature","properties":{"osmId":"node/10583184903","kind":"entrance","name":null,"check_date":null,"wheelchair":null,"inAcademicArea":false,"tags":"{\"addr:city\":\"Kanpur\",\"addr:housenumber\":\"335 Type 3\",\"addr:postcode\":\"208016\",\"entrance\":\"home\"}","notes":null,"photo":null},"geometry":{"type":"Point","coordinates":[80.241296,26.511033]}},{"type":"Feature","properties":{"osmId":"node/10583184904","kind":"entrance","name":null,"check_date":null,"wheelchair":null,"inAcademicArea":false,"tags":"{\"addr:city\":\"Kanpur\",\"addr:housenumber\":\"336 Type 3\",\"addr:postcode\":\"208016\",\"entrance\":\"home\"}","notes":null,"photo":null},"geometry":{"type":"Point","coordinates":[80.241295,26.511114]}},{"type":"Feature","properties":{"osmId":"node/10583185009","kind":"entrance","name":null,"check_date":null,"wheelchair":null,"inAcademicArea":false,"tags":"{\"addr:city\":\"Kanpur\",\"addr:housenumber\":\"337 Type 3\",\"addr:postcode\":\"208016\",\"entrance\":\"home\"}","notes":null,"photo":null},"geometry":{"type":"Point","coordinates":[80.241504,26.511263]}},{"type":"Feature","properties":{"osmId":"node/10583185010","kind":"entrance","name":null,"check_date":null,"wheelchair":null,"inAcademicArea":false,"tags":"{\"addr:city\":\"Kanpur\",\"addr:housenumber\":\"338 Type 3\",\"addr:postcode\":\"208016\",\"entrance\":\"home\"}","notes":null,"photo":null},"geometry":{"type":"Point","coordinates":[80.241503,26.511341]}},{"type":"Feature","properties":{"osmId":"node/10583185011","kind":"entrance","name":null,"check_date":null,"wheelchair":null,"inAcademicArea":false,"tags":"{\"addr:city\":\"Kanpur\",\"addr:housenumber\":\"339 Type 3\",\"addr:postcode\":\"208016\",\"entrance\":\"home\"}","notes":null,"photo":null},"geometry":{"type":"Point","coordinates":[80.241503,26.511428]}},{"type":"Feature","properties":{"osmId":"node/10583185012","kind":"entrance","name":null,"check_date":null,"wheelchair":null,"inAcademicArea":false,"tags":"{\"addr:city\":\"Kanpur\",\"addr:housenumber\":\"340 Type 3\",\"addr:postcode\":\"208016\",\"entrance\":\"home\"}","notes":null,"photo":null},"geometry":{"type":"Point","coordinates":[80.241503,26.511512]}},{"type":"Feature","properties":{"osmId":"node/10583185017","kind":"entrance","name":null,"check_date":null,"wheelchair":null,"inAcademicArea":false,"tags":"{\"addr:city\":\"Kanpur\",\"addr:housenumber\":\"329 Type 3\",\"addr:postcode\":\"208016\",\"entrance\":\"home\"}","notes":null,"photo":null},"geometry":{"type":"Point","coordinates":[80.241859,26.510817]}},{"type":"Feature","properties":{"osmId":"node/10583185018","kind":"entrance","name":null,"check_date":null,"wheelchair":null,"inAcademicArea":false,"tags":"{\"addr:city\":\"Kanpur\",\"addr:housenumber\":\"330 Type 3\",\"addr:postcode\":\"208016\",\"entrance\":\"home\"}","notes":null,"photo":null},"geometry":{"type":"Point","coordinates":[80.241759,26.510815]}},{"type":"Feature","properties":{"osmId":"node/10583185019","kind":"entrance","name":null,"check_date":null,"wheelchair":null,"inAcademicArea":false,"tags":"{\"addr:city\":\"Kanpur\",\"addr:housenumber\":\"331 Type 3\",\"addr:postcode\":\"208016\",\"entrance\":\"home\"}","notes":null,"photo":null},"geometry":{"type":"Point","coordinates":[80.241663,26.510814]}},{"type":"Feature","properties":{"osmId":"node/10583185020","kind":"entrance","name":null,"check_date":null,"wheelchair":null,"inAcademicArea":false,"tags":"{\"addr:city\":\"Kanpur\",\"addr:housenumber\":\"332 Type 3\",\"addr:postcode\":\"208016\",\"entrance\":\"home\"}","notes":null,"photo":null},"geometry":{"type":"Point","coordinates":[80.241584,26.510813]}},{"type":"Feature","properties":{"osmId":"node/10583185025","kind":"entrance","name":null,"check_date":null,"wheelchair":null,"inAcademicArea":false,"tags":"{\"addr:city\":\"Kanpur\",\"addr:housenumber\":\"324 Type 3\",\"addr:postcode\":\"208016\",\"entrance\":\"home\"}","notes":null,"photo":null},"geometry":{"type":"Point","coordinates":[80.241905,26.511294]}},{"type":"Feature","properties":{"osmId":"node/10583185026","kind":"entrance","name":null,"check_date":null,"wheelchair":null,"inAcademicArea":false,"tags":"{\"addr:city\":\"Kanpur\",\"addr:housenumber\":\"323 Type 3\",\"addr:postcode\":\"208016\",\"entrance\":\"home\"}","notes":null,"photo":null},"geometry":{"type":"Point","coordinates":[80.241905,26.511361]}},{"type":"Feature","properties":{"osmId":"node/10583185027","kind":"entrance","name":null,"check_date":null,"wheelchair":null,"inAcademicArea":false,"tags":"{\"addr:city\":\"Kanpur\",\"addr:housenumber\":\"322 Type 3\",\"addr:postcode\":\"208016\",\"entrance\":\"home\"}","notes":null,"photo":null},"geometry":{"type":"Point","coordinates":[80.241906,26.511437]}},{"type":"Feature","properties":{"osmId":"node/10583185028","kind":"entrance","name":null,"check_date":null,"wheelchair":null,"inAcademicArea":false,"tags":"{\"addr:city\":\"Kanpur\",\"addr:housenumber\":\"321 Type 3\",\"addr:postcode\":\"208016\",\"entrance\":\"home\"}","notes":null,"photo":null},"geometry":{"type":"Point","coordinates":[80.241906,26.511511]}},{"type":"Feature","properties":{"osmId":"node/10583185033","kind":"entrance","name":null,"check_date":null,"wheelchair":null,"inAcademicArea":false,"tags":"{\"addr:city\":\"Kanpur\",\"addr:housenumber\":\"325 Type 3\",\"addr:postcode\":\"208016\",\"entrance\":\"home\"}","notes":null,"photo":null},"geometry":{"type":"Point","coordinates":[80.242115,26.511108]}},{"type":"Feature","properties":{"osmId":"node/10583185034","kind":"entrance","name":null,"check_date":null,"wheelchair":null,"inAcademicArea":false,"tags":"{\"addr:city\":\"Kanpur\",\"addr:housenumber\":\"326 Type 3\",\"addr:postcode\":\"208016\",\"entrance\":\"home\"}","notes":null,"photo":null},"geometry":{"type":"Point","coordinates":[80.242115,26.511036]}},{"type":"Feature","properties":{"osmId":"node/10583185035","kind":"entrance","name":null,"check_date":null,"wheelchair":null,"inAcademicArea":false,"tags":"{\"addr:city\":\"Kanpur\",\"addr:housenumber\":\"327 Type 3\",\"addr:postcode\":\"208016\",\"entrance\":\"home\"}","notes":null,"photo":null},"geometry":{"type":"Point","coordinates":[80.242114,26.510942]}},{"type":"Feature","properties":{"osmId":"node/10583185036","kind":"entrance","name":null,"check_date":null,"wheelchair":null,"inAcademicArea":false,"tags":"{\"addr:city\":\"Kanpur\",\"addr:housenumber\":\"328 Type 3\",\"addr:postcode\":\"208016\",\"entrance\":\"home\"}","notes":null,"photo":null},"geometry":{"type":"Point","coordinates":[80.242114,26.510865]}},{"type":"Feature","properties":{"osmId":"node/10772544368","kind":"entrance","name":null,"check_date":null,"wheelchair":null,"inAcademicArea":true,"tags":"{\"entrance\":\"main\"}","notes":null,"photo":null},"geometry":{"type":"Point","coordinates":[80.238246,26.510604]}},{"type":"Feature","properties":{"osmId":"node/10772544369","kind":"entrance","name":null,"check_date":null,"wheelchair":null,"inAcademicArea":true,"tags":"{\"entrance\":\"yes\"}","notes":null,"photo":null},"geometry":{"type":"Point","coordinates":[80.237403,26.510371]}},{"type":"Feature","properties":{"osmId":"node/10590409171","kind":"crossing","name":null,"check_date":null,"wheelchair":null,"inAcademicArea":true,"tags":"{\"highway\":\"crossing\"}","notes":null,"photo":null},"geometry":{"type":"Point","coordinates":[80.234519,26.514575]}},{"type":"Feature","properties":{"osmId":"node/10583174672","kind":"entrance","name":null,"check_date":null,"wheelchair":null,"inAcademicArea":false,"tags":"{\"addr:city\":\"Kanpur\",\"addr:housenumber\":\"313 Type 3\",\"addr:postcode\":\"208016\",\"entrance\":\"home\"}","notes":null,"photo":null},"geometry":{"type":"Point","coordinates":[80.242476,26.510876]}},{"type":"Feature","properties":{"osmId":"node/10583174673","kind":"entrance","name":null,"check_date":null,"wheelchair":null,"inAcademicArea":false,"tags":"{\"addr:city\":\"Kanpur\",\"addr:housenumber\":\"314 Type 3\",\"addr:postcode\":\"208016\",\"entrance\":\"home\"}","notes":null,"photo":null},"geometry":{"type":"Point","coordinates":[80.242474,26.510959]}},{"type":"Feature","properties":{"osmId":"node/10583174674","kind":"entrance","name":null,"check_date":null,"wheelchair":null,"inAcademicArea":false,"tags":"{\"addr:city\":\"Kanpur\",\"addr:housenumber\":\"315 Type 3\",\"addr:postcode\":\"208016\",\"entrance\":\"home\"}","notes":null,"photo":null},"geometry":{"type":"Point","coordinates":[80.242473,26.511048]}},{"type":"Feature","properties":{"osmId":"node/10583174675","kind":"entrance","name":null,"check_date":null,"wheelchair":null,"inAcademicArea":false,"tags":"{\"addr:city\":\"Kanpur\",\"addr:housenumber\":\"316 Type 3\",\"addr:postcode\":\"208016\",\"entrance\":\"home\"}","notes":null,"photo":null},"geometry":{"type":"Point","coordinates":[80.242472,26.511112]}},{"type":"Feature","properties":{"osmId":"node/10583174676","kind":"entrance","name":null,"check_date":null,"wheelchair":null,"inAcademicArea":false,"tags":"{\"addr:city\":\"Kanpur\",\"addr:housenumber\":\"317 Type 3\",\"addr:postcode\":\"208016\",\"entrance\":\"home\"}","notes":null,"photo":null},"geometry":{"type":"Point","coordinates":[80.242673,26.511283]}},{"type":"Feature","properties":{"osmId":"node/10583174677","kind":"entrance","name":null,"check_date":null,"wheelchair":null,"inAcademicArea":false,"tags":"{\"addr:city\":\"Kanpur\",\"addr:housenumber\":\"318 Type 3\",\"addr:postcode\":\"208016\",\"entrance\":\"home\"}","notes":null,"photo":null},"geometry":{"type":"Point","coordinates":[80.242672,26.511357]}},{"type":"Feature","properties":{"osmId":"node/10583174678","kind":"entrance","name":null,"check_date":null,"wheelchair":null,"inAcademicArea":false,"tags":"{\"addr:city\":\"Kanpur\",\"addr:housenumber\":\"319 Type 3\",\"addr:postcode\":\"208016\",\"entrance\":\"home\"}","notes":null,"photo":null},"geometry":{"type":"Point","coordinates":[80.242671,26.511451]}},{"type":"Feature","properties":{"osmId":"node/10583174679","kind":"entrance","name":null,"check_date":null,"wheelchair":null,"inAcademicArea":false,"tags":"{\"addr:city\":\"Kanpur\",\"addr:housenumber\":\"320 Type 3\",\"addr:postcode\":\"208016\",\"entrance\":\"home\"}","notes":null,"photo":null},"geometry":{"type":"Point","coordinates":[80.24267,26.511512]}},{"type":"Feature","properties":{"osmId":"node/10583174680","kind":"entrance","name":null,"check_date":null,"wheelchair":null,"inAcademicArea":false,"tags":"{\"addr:city\":\"Kanpur\",\"addr:housenumber\":\"309 Type 3\",\"addr:postcode\":\"208016\",\"entrance\":\"home\"}","notes":null,"photo":null},"geometry":{"type":"Point","coordinates":[80.243029,26.510832]}},{"type":"Feature","properties":{"osmId":"node/10583174681","kind":"entrance","name":null,"check_date":null,"wheelchair":null,"inAcademicArea":false,"tags":"{\"addr:city\":\"Kanpur\",\"addr:housenumber\":\"310 Type 3\",\"addr:postcode\":\"208016\",\"entrance\":\"home\"}","notes":null,"photo":null},"geometry":{"type":"Point","coordinates":[80.242956,26.510832]}},{"type":"Feature","properties":{"osmId":"node/10583174682","kind":"entrance","name":null,"check_date":null,"wheelchair":null,"inAcademicArea":false,"tags":"{\"addr:city\":\"Kanpur\",\"addr:housenumber\":\"311 Type 3\",\"addr:postcode\":\"208016\",\"entrance\":\"home\"}","notes":null,"photo":null},"geometry":{"type":"Point","coordinates":[80.242873,26.510831]}},{"type":"Feature","properties":{"osmId":"node/10583174683","kind":"entrance","name":null,"check_date":null,"wheelchair":null,"inAcademicArea":false,"tags":"{\"addr:city\":\"Kanpur\",\"addr:housenumber\":\"312 Type 3\",\"addr:postcode\":\"208016\",\"entrance\":\"home\"}","notes":null,"photo":null},"geometry":{"type":"Point","coordinates":[80.242791,26.510831]}},{"type":"Feature","properties":{"osmId":"node/10583174688","kind":"entrance","name":null,"check_date":null,"wheelchair":null,"inAcademicArea":false,"tags":"{\"addr:city\":\"Kanpur\",\"addr:housenumber\":\"301 Type 3\",\"addr:postcode\":\"208016\",\"entrance\":\"home\"}","notes":null,"photo":null},"geometry":{"type":"Point","coordinates":[80.243073,26.511516]}},{"type":"Feature","properties":{"osmId":"node/10583174689","kind":"entrance","name":null,"check_date":null,"wheelchair":null,"inAcademicArea":false,"tags":"{\"addr:city\":\"Kanpur\",\"addr:housenumber\":\"302 Type 3\",\"addr:postcode\":\"208016\",\"entrance\":\"home\"}","notes":null,"photo":null},"geometry":{"type":"Point","coordinates":[80.243073,26.511459]}},{"type":"Feature","properties":{"osmId":"node/10583174690","kind":"entrance","name":null,"check_date":null,"wheelchair":null,"inAcademicArea":false,"tags":"{\"addr:city\":\"Kanpur\",\"addr:housenumber\":\"303 Type 3\",\"addr:postcode\":\"208016\",\"entrance\":\"home\"}","notes":null,"photo":null},"geometry":{"type":"Point","coordinates":[80.243073,26.511398]}},{"type":"Feature","properties":{"osmId":"node/10583174691","kind":"entrance","name":null,"check_date":null,"wheelchair":null,"inAcademicArea":false,"tags":"{\"addr:city\":\"Kanpur\",\"addr:housenumber\":\"304 Type 3\",\"addr:postcode\":\"208016\",\"entrance\":\"home\"}","notes":null,"photo":null},"geometry":{"type":"Point","coordinates":[80.243074,26.511333]}},{"type":"Feature","properties":{"osmId":"node/10583174692","kind":"entrance","name":null,"check_date":null,"wheelchair":null,"inAcademicArea":false,"tags":"{\"addr:city\":\"Kanpur\",\"addr:housenumber\":\"305 Type 3\",\"addr:postcode\":\"208016\",\"entrance\":\"home\"}","notes":null,"photo":null},"geometry":{"type":"Point","coordinates":[80.243286,26.511101]}},{"type":"Feature","properties":{"osmId":"node/10583174693","kind":"entrance","name":null,"check_date":null,"wheelchair":null,"inAcademicArea":false,"tags":"{\"addr:city\":\"Kanpur\",\"addr:housenumber\":\"306 Type 3\",\"addr:postcode\":\"208016\",\"entrance\":\"home\"}","notes":null,"photo":null},"geometry":{"type":"Point","coordinates":[80.243285,26.511024]}},{"type":"Feature","properties":{"osmId":"node/10583174694","kind":"entrance","name":null,"check_date":null,"wheelchair":null,"inAcademicArea":false,"tags":"{\"addr:city\":\"Kanpur\",\"addr:housenumber\":\"307 Type 3\",\"addr:postcode\":\"208016\",\"entrance\":\"home\"}","notes":null,"photo":null},"geometry":{"type":"Point","coordinates":[80.243284,26.51096]}},{"type":"Feature","properties":{"osmId":"node/10583174695","kind":"entrance","name":null,"check_date":null,"wheelchair":null,"inAcademicArea":false,"tags":"{\"addr:city\":\"Kanpur\",\"addr:housenumber\":\"308 Type 3\",\"addr:postcode\":\"208016\",\"entrance\":\"home\"}","notes":null,"photo":null},"geometry":{"type":"Point","coordinates":[80.243284,26.510902]}},{"type":"Feature","properties":{"osmId":"node/10654979743","kind":"entrance","name":null,"check_date":null,"wheelchair":null,"inAcademicArea":false,"tags":"{\"entrance\":\"yes\"}","notes":null,"photo":null},"geometry":{"type":"Point","coordinates":[80.242429,26.507971]}},{"type":"Feature","properties":{"osmId":"node/13650129140","kind":"other","name":"Bikanervala","check_date":null,"wheelchair":"no","inAcademicArea":false,"tags":"{\"name\":\"Bikanervala\",\"name:en\":\"Bikanervala\",\"name:hi\":\"बीकानेरवाला\",\"opening_hours\":\"08:00-22:30\",\"operator\":\"Bikanervala Private Limited\",\"shop\":\"confectionery\",\"wheelchair\":\"no\"}","notes":null,"photo":null},"geometry":{"type":"Point","coordinates":[80.248219,26.508894]}},{"type":"Feature","properties":{"osmId":"way/295571394","kind":"skywalk","name":null,"check_date":null,"wheelchair":null,"inAcademicArea":false,"tags":"{\"access\":\"no\",\"bicycle\":\"no\",\"bridge\":\"yes\",\"foot\":\"destination\",\"highway\":\"footway\",\"horse\":\"no\",\"layer\":\"1\"}","notes":null,"photo":null},"geometry":{"type":"LineString","coordinates":[[80.236676,26.504861],[80.236696,26.504861]]}},{"type":"Feature","properties":{"osmId":"way/1160852758","kind":"skywalk","name":null,"check_date":null,"wheelchair":null,"inAcademicArea":false,"tags":"{\"access\":\"no\",\"bicycle\":\"no\",\"bridge\":\"yes\",\"foot\":\"destination\",\"highway\":\"footway\",\"horse\":\"no\",\"layer\":\"1\"}","notes":null,"photo":null},"geometry":{"type":"LineString","coordinates":[[80.236155,26.504846],[80.236175,26.504846]]}},{"type":"Feature","properties":{"osmId":"way/1160852761","kind":"skywalk","name":null,"check_date":null,"wheelchair":null,"inAcademicArea":false,"tags":"{\"access\":\"no\",\"bicycle\":\"no\",\"bridge\":\"yes\",\"foot\":\"destination\",\"highway\":\"footway\",\"horse\":\"no\",\"layer\":\"1\"}","notes":null,"photo":null},"geometry":{"type":"LineString","coordinates":[[80.23576,26.504858],[80.23578,26.504858]]}},{"type":"Feature","properties":{"osmId":"way/1160852764","kind":"skywalk","name":null,"check_date":null,"wheelchair":null,"inAcademicArea":false,"tags":"{\"access\":\"no\",\"bicycle\":\"no\",\"bridge\":\"yes\",\"foot\":\"destination\",\"highway\":\"footway\",\"horse\":\"no\",\"layer\":\"1\"}","notes":null,"photo":null},"geometry":{"type":"LineString","coordinates":[[80.236153,26.504469],[80.236173,26.504469]]}},{"type":"Feature","properties":{"osmId":"way/1160852767","kind":"skywalk","name":null,"check_date":null,"wheelchair":null,"inAcademicArea":false,"tags":"{\"access\":\"no\",\"bicycle\":\"no\",\"bridge\":\"yes\",\"foot\":\"destination\",\"highway\":\"footway\",\"horse\":\"no\",\"layer\":\"1\"}","notes":null,"photo":null},"geometry":{"type":"LineString","coordinates":[[80.235775,26.504437],[80.235795,26.504437]]}},{"type":"Feature","properties":{"osmId":"way/1160852770","kind":"skywalk","name":null,"check_date":null,"wheelchair":null,"inAcademicArea":false,"tags":"{\"access\":\"no\",\"bicycle\":\"no\",\"bridge\":\"yes\",\"foot\":\"destination\",\"highway\":\"footway\",\"horse\":\"no\",\"layer\":\"1\"}","notes":null,"photo":null},"geometry":{"type":"LineString","coordinates":[[80.235768,26.504012],[80.235788,26.504012]]}},{"type":"Feature","properties":{"osmId":"way/1488889188","kind":"stairs","name":null,"check_date":null,"wheelchair":null,"inAcademicArea":true,"tags":"{\"handrail\":\"yes\",\"highway\":\"steps\",\"incline\":\"down\",\"level\":\"1\"}","notes":null,"photo":null},"geometry":{"type":"LineString","coordinates":[[80.23327,26.511035],[80.233202,26.511097]]}},{"type":"Feature","properties":{"osmId":"way/1489040305","kind":"stairs","name":null,"check_date":null,"wheelchair":null,"inAcademicArea":true,"tags":"{\"handrail:left\":\"yes\",\"highway\":\"steps\",\"incline\":\"up\",\"level\":\"0\"}","notes":null,"photo":null},"geometry":{"type":"LineString","coordinates":[[80.232498,26.510923],[80.232493,26.5109],[80.232554,26.510887],[80.23256,26.510925]]}},{"type":"Feature","properties":{"osmId":"way/1489040317","kind":"toilets","name":null,"check_date":null,"wheelchair":"limited","inAcademicArea":true,"tags":"{\"access\":\"permissive\",\"amenity\":\"toilets\",\"fee\":\"no\",\"female\":\"yes\",\"level\":\"1\",\"toilets:disposal\":\"flush\",\"toilets:handwashing\":\"yes\",\"toilets:position\":\"squat\",\"wheelchair\":\"limited\"}","notes":null,"photo":null},"geometry":{"type":"LineString","coordinates":[[80.232392,26.510733],[80.232416,26.510738],[80.232426,26.510727],[80.23243,26.510713],[80.232426,26.510699],[80.232416,26.510688],[80.232402,26.510682],[80.232392,26.510733]]}},{"type":"Feature","properties":{"osmId":"way/1489040318","kind":"toilets","name":null,"check_date":null,"wheelchair":"limited","inAcademicArea":true,"tags":"{\"access\":\"permissive\",\"amenity\":\"toilets\",\"fee\":\"no\",\"level\":\"0\",\"male\":\"yes\",\"toilets:disposal\":\"flush\",\"toilets:handwashing\":\"yes\",\"toilets:position\":\"squat;urinal\",\"wheelchair\":\"limited\"}","notes":null,"photo":null},"geometry":{"type":"LineString","coordinates":[[80.232392,26.510733],[80.232402,26.510682],[80.232386,26.510682],[80.232372,26.510688],[80.232362,26.510699],[80.232359,26.510713],[80.232362,26.510727],[80.232392,26.510733]]}},{"type":"Feature","properties":{"osmId":"way/1489040329","kind":"toilets","name":null,"check_date":null,"wheelchair":"limited","inAcademicArea":true,"tags":"{\"access\":\"permissive\",\"amenity\":\"toilets\",\"fee\":\"no\",\"level\":\"1\",\"male\":\"yes\",\"toilets:disposal\":\"flush\",\"toilets:handwashing\":\"yes\",\"toilets:position\":\"squat;urinal\",\"wheelchair\":\"limited\"}","notes":null,"photo":null},"geometry":{"type":"LineString","coordinates":[[80.232392,26.510733],[80.232402,26.510682],[80.232386,26.510682],[80.232372,26.510688],[80.232362,26.510699],[80.232359,26.510713],[80.232362,26.510727],[80.232392,26.510733]]}},{"type":"Feature","properties":{"osmId":"way/1489040335","kind":"toilets","name":null,"check_date":null,"wheelchair":"limited","inAcademicArea":true,"tags":"{\"access\":\"permissive\",\"amenity\":\"toilets\",\"fee\":\"no\",\"female\":\"yes\",\"level\":\"0\",\"toilets:disposal\":\"flush\",\"toilets:handwashing\":\"yes\",\"toilets:position\":\"squat\",\"wheelchair\":\"limited\"}","notes":null,"photo":null},"geometry":{"type":"LineString","coordinates":[[80.232392,26.510733],[80.232416,26.510738],[80.232426,26.510727],[80.23243,26.510713],[80.232426,26.510699],[80.232416,26.510688],[80.232402,26.510682],[80.232392,26.510733]]}},{"type":"Feature","properties":{"osmId":"way/1489089286","kind":"stairs","name":null,"check_date":null,"wheelchair":null,"inAcademicArea":true,"tags":"{\"handrail:left\":\"yes\",\"highway\":\"steps\",\"incline\":\"up\"}","notes":null,"photo":null},"geometry":{"type":"LineString","coordinates":[[80.233505,26.511267],[80.233536,26.511294]]}},{"type":"Feature","properties":{"osmId":"way/1489089287","kind":"stairs","name":null,"check_date":null,"wheelchair":null,"inAcademicArea":true,"tags":"{\"highway\":\"steps\",\"incline\":\"down\"}","notes":null,"photo":null},"geometry":{"type":"LineString","coordinates":[[80.233518,26.511253],[80.233558,26.511286]]}},{"type":"Feature","properties":{"osmId":"way/1489089288","kind":"stairs","name":null,"check_date":null,"wheelchair":null,"inAcademicArea":true,"tags":"{\"handrail:right\":\"yes\",\"highway\":\"steps\",\"incline\":\"up\"}","notes":null,"photo":null},"geometry":{"type":"LineString","coordinates":[[80.233537,26.511238],[80.233567,26.511265]]}},{"type":"Feature","properties":{"osmId":"way/1489182985","kind":"other","name":"Bikanervala","check_date":null,"wheelchair":"no","inAcademicArea":false,"tags":"{\"air_conditioning\":\"yes\",\"amenity\":\"fast_food\",\"indoor_seating\":\"yes\",\"level\":\"0\",\"name\":\"Bikanervala\",\"name:en\":\"Bikanervala\",\"name:hi\":\"बीकानेरवाला\",\"opening_hours\":\"08:00-22:30\",\"operator\":\"Bikanervala Private Limited\",\"wheelchair\":\"no\"}","notes":null,"photo":null},"geometry":{"type":"LineString","coordinates":[[80.248035,26.50879],[80.248198,26.508935],[80.248261,26.508878],[80.248099,26.508733],[80.248035,26.50879]]}}]}