{"type":"FeatureCollection","features":[{"type":"Feature","properties":{"osmId":"way/152930184","kind":"corridor","name":"IITK Academic Area Corridors","level":"0","highway":"footway"},"geometry":{"type":"LineString","coordinates":[[80.232641,26.512377],[80.232592,26.512377],[80.232367,26.512376],[80.231344,26.51237]]}},{"type":"Feature","properties":{"osmId":"way/152930190","kind":"corridor","name":"IITK Academic Area Corridors","level":"0","highway":"footway"},"geometry":{"type":"LineString","coordinates":[[80.233102,26.511253],[80.23311,26.511244],[80.233341,26.511031],[80.233532,26.510881],[80.233546,26.510869],[80.233577,26.51083],[80.233583,26.510802],[80.233582,26.510788],[80.233584,26.51078],[80.233599,26.510713]]}},{"type":"Feature","properties":{"osmId":"way/152930191","kind":"connector","name":"IITK Academic Area Corridors","level":"1;0","highway":"footway"},"geometry":{"type":"LineString","coordinates":[[80.234792,26.511032],[80.234777,26.511655],[80.234747,26.512034],[80.234766,26.512034],[80.234729,26.512385],[80.234176,26.51238],[80.234007,26.512379],[80.233519,26.512375],[80.233449,26.512375],[80.233022,26.512373],[80.232823,26.512375],[80.232648,26.512377],[80.232641,26.512377],[80.23265,26.511797],[80.232655,26.51173]]}},{"type":"Feature","properties":{"osmId":"way/1488772205","kind":"room","name":"Lecture Hall 13","ref":null,"level":"1","indoor":"room"},"geometry":{"type":"Polygon","coordinates":[[[80.233362,26.511067],[80.233362,26.51104],[80.233417,26.510991],[80.23345,26.510993],[80.233506,26.51105],[80.233506,26.511071],[80.233441,26.511124],[80.233422,26.511123],[80.233416,26.511117],[80.233408,26.51111],[80.233403,26.511105],[80.23338,26.511084],[80.233375,26.511079],[80.233371,26.511076],[80.233362,26.511067]]]}},{"type":"Feature","properties":{"osmId":"way/1488772206","kind":"room","name":"Lecture Hall 11","ref":null,"level":"1","indoor":"room"},"geometry":{"type":"Polygon","coordinates":[[[80.233474,26.511177],[80.233473,26.511153],[80.233478,26.51115],[80.233534,26.511101],[80.233559,26.511103],[80.233606,26.511151],[80.233609,26.511172],[80.233556,26.511219],[80.233529,26.511225],[80.233515,26.511215],[80.233486,26.511188],[80.233483,26.511186],[80.233474,26.511177]]]}},{"type":"Feature","properties":{"osmId":"way/1488772207","kind":"room","name":"Lecture Hall 9","ref":null,"level":"0","indoor":"room"},"geometry":{"type":"Polygon","coordinates":[[[80.233362,26.511067],[80.233362,26.51104],[80.233417,26.510991],[80.23345,26.510993],[80.233506,26.51105],[80.233506,26.511071],[80.233441,26.511124],[80.233422,26.511123],[80.233416,26.511117],[80.233408,26.51111],[80.233403,26.511105],[80.23338,26.511084],[80.233371,26.511075],[80.233362,26.511067]]]}},{"type":"Feature","properties":{"osmId":"way/1488772208","kind":"room","name":"Lecture Hall 12","ref":null,"level":"1","indoor":"room"},"geometry":{"type":"Polygon","coordinates":[[[80.233214,26.511168],[80.233288,26.511102],[80.233309,26.511102],[80.233317,26.511109],[80.233325,26.511116],[80.233328,26.511118],[80.233333,26.511123],[80.233358,26.511145],[80.233365,26.511151],[80.233371,26.511157],[80.233377,26.511162],[80.233376,26.511175],[80.23337,26.511181],[80.233319,26.511224],[80.233294,26.511243],[80.233214,26.511168]]]}},{"type":"Feature","properties":{"osmId":"way/1488772209","kind":"room","name":"Lecture Hall 8","ref":null,"level":"0","indoor":"room"},"geometry":{"type":"Polygon","coordinates":[[[80.233214,26.511168],[80.233288,26.511102],[80.233309,26.511102],[80.233317,26.511109],[80.233325,26.511116],[80.233333,26.511123],[80.233358,26.511145],[80.233365,26.511151],[80.233371,26.511157],[80.233377,26.511162],[80.233376,26.511175],[80.23337,26.511181],[80.233319,26.511224],[80.233294,26.511243],[80.233214,26.511168]]]}},{"type":"Feature","properties":{"osmId":"way/1488772210","kind":"room","name":"Lecture Hall 10","ref":null,"level":"1","indoor":"room"},"geometry":{"type":"Polygon","coordinates":[[[80.233336,26.511285],[80.233335,26.511263],[80.233399,26.51121],[80.233423,26.511209],[80.233431,26.511217],[80.233436,26.511221],[80.233474,26.511255],[80.233495,26.511271],[80.233424,26.511337],[80.233396,26.511337],[80.233336,26.511285]]]}},{"type":"Feature","properties":{"osmId":"way/1488889185","kind":"room","name":"Lecture Hall Complex Office Staff","ref":null,"level":"1","indoor":"room"},"geometry":{"type":"Polygon","coordinates":[[[80.233441,26.511124],[80.233448,26.511124],[80.233468,26.511143],[80.233478,26.51115],[80.233528,26.511109],[80.233498,26.511079],[80.233441,26.511124]]]}},{"type":"Feature","properties":{"osmId":"way/1488889188","kind":"stairs","name":null,"level":"0;1","highway":"steps"},"geometry":{"type":"LineString","coordinates":[[80.23327,26.511035],[80.233202,26.511097]]}},{"type":"Feature","properties":{"osmId":"way/1488889198","kind":"room","name":null,"ref":null,"level":"0","indoor":"corridor"},"geometry":{"type":"Polygon","coordinates":[[[80.233541,26.511287],[80.233434,26.511194],[80.233406,26.511194],[80.233392,26.511205],[80.233375,26.511186],[80.233387,26.511177],[80.233389,26.511156],[80.233381,26.511148],[80.233371,26.511157],[80.233365,26.511151],[80.233358,26.511145],[80.233369,26.511135],[80.233344,26.511113],[80.233333,26.511123],[80.233325,26.511116],[80.233317,26.511109],[80.23333,26.511098],[80.233321,26.51109],[80.233286,26.51109],[80.233188,26.511177],[80.23319,26.511212],[80.233149,26.511218],[80.233076,26.511332],[80.233062,26.511356],[80.233061,26.511483],[80.233032,26.511492],[80.233032,26.511441],[80.232727,26.511437],[80.232727,26.511407],[80.232869,26.511403],[80.233031,26.51141],[80.233031,26.511351],[80.23312,26.511212],[80.233116,26.511157],[80.233162,26.511154],[80.233282,26.511046],[80.23327,26.511035],[80.233239,26.511007],[80.233255,26.510993],[80.233293,26.511026],[80.233325,26.511031],[80.23347,26.510911],[80.233486,26.510926],[80.233341,26.51105],[80.233342,26.511071],[80.23335,26.511079],[80.233362,26.511067],[80.233371,26.511075],[80.23338,26.511084],[80.233367,26.511095],[80.233389,26.511116],[80.233403,26.511105],[80.233408,26.51111],[80.233416,26.511117],[80.233402,26.511128],[80.233412,26.511137],[80.233431,26.51114],[80.233448,26.511124],[80.233468,26.511143],[80.23345,26.511158],[80.233449,26.511175],[80.233559,26.511271],[80.233541,26.511287]]]}},{"type":"Feature","properties":{"osmId":"way/1488889200","kind":"connector","name":null,"level":"1;0","highway":"footway"},"geometry":{"type":"LineString","coordinates":[[80.233255,26.511007],[80.233278,26.511029],[80.233311,26.511057],[80.233351,26.511095],[80.233464,26.511202],[80.233518,26.511253]]}},{"type":"Feature","properties":{"osmId":"way/1488889201","kind":"room","name":"Lecture Hall Complex Office Staff","ref":null,"level":"1","indoor":"room"},"geometry":{"type":"Polygon","coordinates":[[[80.233319,26.511224],[80.233348,26.511252],[80.233399,26.51121],[80.233392,26.511205],[80.233375,26.511186],[80.23337,26.511181],[80.233319,26.511224]]]}},{"type":"Feature","properties":{"osmId":"way/1488889204","kind":"corridor","name":null,"level":"1","highway":"corridor"},"geometry":{"type":"LineString","coordinates":[[80.23327,26.511035],[80.233278,26.511029]]}},{"type":"Feature","properties":{"osmId":"way/1489027369","kind":"connector","name":null,"level":"1;0","highway":"footway"},"geometry":{"type":"LineString","coordinates":[[80.233568,26.510778],[80.233583,26.510802],[80.233564,26.510864],[80.233479,26.510918],[80.233311,26.511057],[80.233278,26.511074],[80.233148,26.511197],[80.233076,26.511332],[80.233047,26.511353],[80.233048,26.511423],[80.232894,26.511421],[80.232724,26.51142],[80.232682,26.511433],[80.232619,26.511453],[80.232553,26.511453]]}},{"type":"Feature","properties":{"osmId":"way/1489027370","kind":"room","name":null,"ref":null,"level":"1","indoor":"corridor"},"geometry":{"type":"Polygon","coordinates":[[[80.233541,26.511287],[80.233434,26.511194],[80.233406,26.511194],[80.233392,26.511205],[80.233375,26.511186],[80.233387,26.511177],[80.233389,26.511156],[80.233381,26.511148],[80.233371,26.511157],[80.233365,26.511151],[80.233358,26.511145],[80.233369,26.511135],[80.233344,26.511113],[80.233333,26.511123],[80.233328,26.511118],[80.233325,26.511116],[80.233317,26.511109],[80.23333,26.511098],[80.233321,26.51109],[80.233286,26.51109],[80.233188,26.511177],[80.23319,26.511212],[80.233149,26.511218],[80.233076,26.511332],[80.233062,26.511356],[80.233061,26.511483],[80.233032,26.511492],[80.233032,26.511441],[80.232727,26.511437],[80.232727,26.511407],[80.232869,26.511403],[80.233031,26.51141],[80.233031,26.511351],[80.23312,26.511212],[80.233116,26.511157],[80.233162,26.511154],[80.233282,26.511046],[80.23327,26.511035],[80.233239,26.511007],[80.233255,26.510993],[80.233293,26.511026],[80.233325,26.511031],[80.23347,26.510911],[80.233486,26.510926],[80.233341,26.51105],[80.233342,26.511071],[80.23335,26.511079],[80.233362,26.511067],[80.233375,26.511079],[80.23338,26.511084],[80.233367,26.511095],[80.23339,26.511116],[80.233403,26.511105],[80.233408,26.51111],[80.233416,26.511117],[80.233402,26.511128],[80.233412,26.511137],[80.233431,26.51114],[80.233448,26.511124],[80.233468,26.511143],[80.23345,26.511158],[80.233449,26.511175],[80.233559,26.511271],[80.233551,26.511278],[80.233541,26.511287]]]}},{"type":"Feature","properties":{"osmId":"way/1489040304","kind":"room","name":"107","ref":null,"level":"0","indoor":"room"},"geometry":{"type":"Polygon","coordinates":[[[80.232215,26.510995],[80.232207,26.510977],[80.232202,26.51096],[80.232192,26.51096],[80.232167,26.510963],[80.232108,26.510968],[80.232116,26.511002],[80.232129,26.51103],[80.232215,26.510995]]]}},{"type":"Feature","properties":{"osmId":"way/1489040305","kind":"stairs","name":null,"level":"0","highway":"steps"},"geometry":{"type":"LineString","coordinates":[[80.232498,26.510923],[80.232493,26.5109],[80.232554,26.510887],[80.23256,26.510925]]}},{"type":"Feature","properties":{"osmId":"way/1489040307","kind":"room","name":"210","ref":null,"level":"1","indoor":"room"},"geometry":{"type":"Polygon","coordinates":[[[80.232282,26.51114],[80.232319,26.511146],[80.232355,26.511147],[80.232354,26.511079],[80.232354,26.511068],[80.232333,26.511068],[80.232308,26.511064],[80.232282,26.51114]]]}},{"type":"Feature","properties":{"osmId":"way/1489040308","kind":"room","name":"101","ref":null,"level":"0","indoor":"room"},"geometry":{"type":"Polygon","coordinates":[[[80.232432,26.510836],[80.232446,26.510847],[80.232461,26.510862],[80.232472,26.510855],[80.232491,26.510843],[80.232536,26.510816],[80.232518,26.510796],[80.232491,26.510774],[80.232432,26.510836]]]}},{"type":"Feature","properties":{"osmId":"way/1489040309","kind":"room","name":"202","ref":null,"level":"1","indoor":"room"},"geometry":{"type":"Polygon","coordinates":[[[80.232491,26.510774],[80.232467,26.51076],[80.232427,26.510741],[80.232407,26.510783],[80.232397,26.510804],[80.232392,26.510815],[80.232416,26.510827],[80.232432,26.510836],[80.232491,26.510774]]]}},{"type":"Feature","properties":{"osmId":"way/1489040310","kind":"room","name":"105","ref":null,"level":"0","indoor":"room"},"geometry":{"type":"Polygon","coordinates":[[[80.232215,26.510882],[80.232225,26.510868],[80.232237,26.510853],[80.232226,26.510845],[80.232206,26.510826],[80.232169,26.510794],[80.232144,26.510823],[80.232127,26.51085],[80.232215,26.510882]]]}},{"type":"Feature","properties":{"osmId":"way/1489040311","kind":"room","name":"208","ref":null,"level":"1","indoor":"room"},"geometry":{"type":"Polygon","coordinates":[[[80.232129,26.51103],[80.232146,26.511057],[80.232167,26.51108],[80.232206,26.511049],[80.23223,26.51103],[80.232237,26.511024],[80.232224,26.511009],[80.232215,26.510995],[80.232129,26.51103]]]}},{"type":"Feature","properties":{"osmId":"way/1489040312","kind":"room","name":"103","ref":null,"level":"0","indoor":"room"},"geometry":{"type":"Polygon","coordinates":[[[80.232311,26.510814],[80.232333,26.51081],[80.232356,26.51081],[80.232355,26.510794],[80.232355,26.510773],[80.232353,26.510728],[80.232285,26.510733],[80.232311,26.510814]]]}},{"type":"Feature","properties":{"osmId":"way/1489040313","kind":"room","name":"111","ref":null,"level":"0","indoor":"room"},"geometry":{"type":"Polygon","coordinates":[[[80.232433,26.511041],[80.232415,26.511052],[80.232397,26.51106],[80.2324,26.511072],[80.232421,26.511135],[80.232451,26.511124],[80.232479,26.511108],[80.232433,26.511041]]]}},{"type":"Feature","properties":{"osmId":"way/1489040314","kind":"room","name":"206","ref":null,"level":"1","indoor":"room"},"geometry":{"type":"Polygon","coordinates":[[[80.232127,26.51085],[80.232115,26.510877],[80.232108,26.510906],[80.232167,26.510913],[80.232191,26.510916],[80.232203,26.510918],[80.232207,26.510901],[80.232215,26.510882],[80.232127,26.51085]]]}},{"type":"Feature","properties":{"osmId":"way/1489040315","kind":"room","name":"110","ref":null,"level":"0","indoor":"room"},"geometry":{"type":"Polygon","coordinates":[[[80.232282,26.51114],[80.232319,26.511146],[80.232355,26.511147],[80.232354,26.511079],[80.232354,26.511068],[80.232333,26.511068],[80.232308,26.511064],[80.232282,26.51114]]]}},{"type":"Feature","properties":{"osmId":"way/1489040316","kind":"room","name":"108","ref":null,"level":"0","indoor":"room"},"geometry":{"type":"Polygon","coordinates":[[[80.232129,26.51103],[80.232146,26.511057],[80.232167,26.51108],[80.232206,26.511049],[80.23223,26.51103],[80.232237,26.511024],[80.232224,26.511009],[80.232215,26.510995],[80.232129,26.51103]]]}},{"type":"Feature","properties":{"osmId":"way/1489040319","kind":"room","name":"106","ref":null,"level":"0","indoor":"room"},"geometry":{"type":"Polygon","coordinates":[[[80.232127,26.51085],[80.232115,26.510877],[80.232108,26.510906],[80.232167,26.510913],[80.232191,26.510916],[80.232203,26.510918],[80.232207,26.510901],[80.232215,26.510882],[80.232127,26.51085]]]}},{"type":"Feature","properties":{"osmId":"way/1489040321","kind":"room","name":"212","ref":null,"level":"1","indoor":"room"},"geometry":{"type":"Polygon","coordinates":[[[80.232479,26.511108],[80.232508,26.511087],[80.232537,26.511057],[80.232478,26.511017],[80.232466,26.51101],[80.23245,26.511027],[80.232433,26.511041],[80.232479,26.511108]]]}},{"type":"Feature","properties":{"osmId":"way/1489040323","kind":"room","name":null,"ref":null,"level":"0;1","indoor":"room"},"geometry":{"type":"Polygon","coordinates":[[[80.232566,26.511002],[80.232509,26.510985],[80.232483,26.510977],[80.232487,26.510959],[80.232489,26.510935],[80.232487,26.510916],[80.23248,26.510893],[80.232516,26.510885],[80.23257,26.510872],[80.232574,26.510902],[80.232578,26.510935],[80.232577,26.510934],[80.232576,26.510951],[80.232573,26.510972],[80.232566,26.511002]]]}},{"type":"Feature","properties":{"osmId":"way/1489040324","kind":"room","name":"109","ref":null,"level":"0","indoor":"room"},"geometry":{"type":"Polygon","coordinates":[[[80.232308,26.511064],[80.232289,26.511058],[80.23227,26.511049],[80.232265,26.511056],[80.232248,26.511078],[80.232219,26.511117],[80.232246,26.511129],[80.232282,26.51114],[80.232308,26.511064]]]}},{"type":"Feature","properties":{"osmId":"way/1489040325","kind":"room","name":"207","ref":null,"level":"1","indoor":"room"},"geometry":{"type":"Polygon","coordinates":[[[80.232215,26.510995],[80.232207,26.510977],[80.232202,26.51096],[80.232192,26.51096],[80.232167,26.510963],[80.232108,26.510968],[80.232116,26.511002],[80.232129,26.51103],[80.232215,26.510995]]]}},{"type":"Feature","properties":{"osmId":"way/1489040326","kind":"room","name":"112","ref":null,"level":"0","indoor":"room"},"geometry":{"type":"Polygon","coordinates":[[[80.232479,26.511108],[80.232508,26.511087],[80.232537,26.511057],[80.232487,26.511023],[80.232478,26.511017],[80.232466,26.51101],[80.23245,26.511027],[80.232433,26.511041],[80.232479,26.511108]]]}},{"type":"Feature","properties":{"osmId":"way/1489040327","kind":"room","name":"211","ref":null,"level":"1","indoor":"room"},"geometry":{"type":"Polygon","coordinates":[[[80.232433,26.511041],[80.232415,26.511052],[80.232398,26.51106],[80.2324,26.511071],[80.232421,26.511135],[80.232451,26.511124],[80.232479,26.511108],[80.232433,26.511041]]]}},{"type":"Feature","properties":{"osmId":"way/1489040328","kind":"room","name":"201","ref":null,"level":"1","indoor":"room"},"geometry":{"type":"Polygon","coordinates":[[[80.232432,26.510836],[80.232446,26.510847],[80.232461,26.510862],[80.232472,26.510855],[80.232536,26.510816],[80.232518,26.510796],[80.232491,26.510774],[80.232432,26.510836]]]}},{"type":"Feature","properties":{"osmId":"way/1489040330","kind":"room","name":"203","ref":null,"level":"1","indoor":"room"},"geometry":{"type":"Polygon","coordinates":[[[80.232311,26.510814],[80.232333,26.51081],[80.232356,26.51081],[80.232355,26.510794],[80.232355,26.510794],[80.232354,26.510773],[80.232353,26.510728],[80.232285,26.510733],[80.232311,26.510814]]]}},{"type":"Feature","properties":{"osmId":"way/1489040331","kind":"room","name":"209","ref":null,"level":"1","indoor":"room"},"geometry":{"type":"Polygon","coordinates":[[[80.232308,26.511064],[80.232289,26.511058],[80.23227,26.511049],[80.232265,26.511056],[80.232248,26.511078],[80.232219,26.511117],[80.232246,26.511129],[80.232282,26.51114],[80.232308,26.511064]]]}},{"type":"Feature","properties":{"osmId":"way/1489040332","kind":"room","name":"102","ref":null,"level":"0","indoor":"room"},"geometry":{"type":"Polygon","coordinates":[[[80.232491,26.510774],[80.232467,26.51076],[80.232427,26.510741],[80.232407,26.510784],[80.232397,26.510804],[80.232392,26.510815],[80.232416,26.510827],[80.232432,26.510836],[80.232491,26.510774]]]}},{"type":"Feature","properties":{"osmId":"way/1489040334","kind":"room","name":"205","ref":null,"level":"1","indoor":"room"},"geometry":{"type":"Polygon","coordinates":[[[80.232215,26.510882],[80.232225,26.510868],[80.232237,26.510853],[80.232226,26.510845],[80.232226,26.510844],[80.232206,26.510826],[80.232169,26.510794],[80.232144,26.510823],[80.232127,26.51085],[80.232215,26.510882]]]}},{"type":"Feature","properties":{"osmId":"way/1489040336","kind":"room","name":"104","ref":null,"level":"0","indoor":"room"},"geometry":{"type":"Polygon","coordinates":[[[80.232285,26.510733],[80.232259,26.510741],[80.232218,26.510758],[80.232246,26.510796],[80.232262,26.510819],[80.23227,26.510829],[80.232289,26.510819],[80.232311,26.510814],[80.232285,26.510733]]]}},{"type":"Feature","properties":{"osmId":"way/1489040337","kind":"room","name":"204","ref":null,"level":"1","indoor":"room"},"geometry":{"type":"Polygon","coordinates":[[[80.232285,26.510733],[80.232259,26.510741],[80.232218,26.510758],[80.232246,26.510796],[80.232262,26.510819],[80.23227,26.510829],[80.232289,26.510819],[80.232311,26.510814],[80.232285,26.510733]]]}},{"type":"Feature","properties":{"osmId":"way/1490081568","kind":"corridor","name":null,"level":"1","highway":"corridor"},"geometry":{"type":"LineString","coordinates":[[80.232472,26.510938],[80.232489,26.510935],[80.232498,26.510935],[80.232499,26.510935]]}},{"type":"Feature","properties":{"osmId":"way/1490081569","kind":"corridor","name":null,"level":"1","highway":"corridor"},"geometry":{"type":"LineString","coordinates":[[80.232265,26.511056],[80.232245,26.511043],[80.23223,26.51103]]}},{"type":"Feature","properties":{"osmId":"way/1490081570","kind":"corridor","name":null,"level":"1","highway":"corridor"},"geometry":{"type":"LineString","coordinates":[[80.232264,26.511028],[80.232245,26.511043]]}},{"type":"Feature","properties":{"osmId":"way/1490081571","kind":"corridor","name":null,"level":"1","highway":"corridor"},"geometry":{"type":"LineString","coordinates":[[80.232192,26.51096],[80.23219,26.510938],[80.232191,26.510916]]}},{"type":"Feature","properties":{"osmId":"way/1490081572","kind":"corridor","name":null,"level":"1","highway":"corridor"},"geometry":{"type":"LineString","coordinates":[[80.232214,26.510939],[80.23219,26.510938]]}},{"type":"Feature","properties":{"osmId":"way/1490081573","kind":"corridor","name":null,"level":"1","highway":"corridor"},"geometry":{"type":"LineString","coordinates":[[80.232261,26.510847],[80.232243,26.510831]]}},{"type":"Feature","properties":{"osmId":"way/1490081574","kind":"corridor","name":null,"level":"1","highway":"corridor"},"geometry":{"type":"LineString","coordinates":[[80.232226,26.510844],[80.232243,26.510831],[80.232262,26.510819]]}},{"type":"Feature","properties":{"osmId":"way/1490081575","kind":"corridor","name":null,"level":"1","highway":"corridor"},"geometry":{"type":"LineString","coordinates":[[80.232238,26.511003],[80.232221,26.510973],[80.232214,26.510939],[80.232219,26.510905],[80.232235,26.510873],[80.232261,26.510847],[80.232295,26.510829],[80.232333,26.510821],[80.232371,26.510824],[80.232407,26.510837],[80.232437,26.510858],[80.232458,26.510886],[80.232468,26.510911],[80.232472,26.510938],[80.23247,26.510951],[80.232468,26.510965],[80.232458,26.51099],[80.232436,26.511017],[80.232406,26.511038],[80.232371,26.51105],[80.232333,26.511052],[80.232297,26.511044],[80.232264,26.511028],[80.232238,26.511003]]}},{"type":"Feature","properties":{"osmId":"way/1490081576","kind":"corridor","name":null,"level":"1","highway":"corridor"},"geometry":{"type":"LineString","coordinates":[[80.232371,26.510824],[80.232377,26.510798]]}},{"type":"Feature","properties":{"osmId":"way/1490081577","kind":"corridor","name":null,"level":"1","highway":"corridor"},"geometry":{"type":"LineString","coordinates":[[80.232355,26.510794],[80.232377,26.510798],[80.232397,26.510804]]}},{"type":"Feature","properties":{"osmId":"way/1490081579","kind":"corridor","name":null,"level":"0","highway":"corridor"},"geometry":{"type":"LineString","coordinates":[[80.232499,26.510935],[80.232498,26.510923]]}},{"type":"Feature","properties":{"osmId":"way/1490081580","kind":"corridor","name":null,"level":"0","highway":"corridor"},"geometry":{"type":"LineString","coordinates":[[80.232261,26.510847],[80.232243,26.510831]]}},{"type":"Feature","properties":{"osmId":"way/1490081581","kind":"corridor","name":null,"level":"0","highway":"corridor"},"geometry":{"type":"LineString","coordinates":[[80.232226,26.510845],[80.232243,26.510831],[80.232262,26.510819]]}},{"type":"Feature","properties":{"osmId":"way/1490081583","kind":"corridor","name":null,"level":"0","highway":"corridor"},"geometry":{"type":"LineString","coordinates":[[80.232355,26.510794],[80.232377,26.510798],[80.232397,26.510804]]}},{"type":"Feature","properties":{"osmId":"way/1490081584","kind":"corridor","name":null,"level":"0","highway":"corridor"},"geometry":{"type":"LineString","coordinates":[[80.232372,26.510824],[80.232377,26.510798]]}},{"type":"Feature","properties":{"osmId":"way/1490081585","kind":"corridor","name":null,"level":"0","highway":"corridor"},"geometry":{"type":"LineString","coordinates":[[80.232472,26.510855],[80.232477,26.510873],[80.232459,26.510886]]}},{"type":"Feature","properties":{"osmId":"way/1490081586","kind":"corridor","name":null,"level":"0","highway":"corridor"},"geometry":{"type":"LineString","coordinates":[[80.232458,26.51099],[80.232475,26.510995],[80.232478,26.511017]]}},{"type":"Feature","properties":{"osmId":"way/1490081587","kind":"corridor","name":null,"level":"0","highway":"corridor"},"geometry":{"type":"LineString","coordinates":[[80.2324,26.511072],[80.232376,26.511077],[80.232354,26.511079]]}},{"type":"Feature","properties":{"osmId":"way/1490081588","kind":"corridor","name":null,"level":"0","highway":"corridor"},"geometry":{"type":"LineString","coordinates":[[80.232472,26.510938],[80.232489,26.510935],[80.232499,26.510935],[80.232578,26.510935],[80.232618,26.510934],[80.232647,26.511167],[80.23267,26.511284]]}},{"type":"Feature","properties":{"osmId":"way/1490081589","kind":"corridor","name":null,"level":"0","highway":"corridor"},"geometry":{"type":"LineString","coordinates":[[80.232371,26.51105],[80.232376,26.511077],[80.232388,26.511141]]}},{"type":"Feature","properties":{"osmId":"way/1490081590","kind":"corridor","name":null,"level":"0","highway":"corridor"},"geometry":{"type":"LineString","coordinates":[[80.232263,26.511028],[80.232245,26.511043]]}},{"type":"Feature","properties":{"osmId":"way/1490081591","kind":"corridor","name":null,"level":"0","highway":"corridor"},"geometry":{"type":"LineString","coordinates":[[80.232265,26.511056],[80.232245,26.511043],[80.23223,26.51103]]}},{"type":"Feature","properties":{"osmId":"way/1490081592","kind":"corridor","name":null,"level":"0","highway":"corridor"},"geometry":{"type":"LineString","coordinates":[[80.232192,26.51096],[80.23219,26.510938],[80.232191,26.510916]]}},{"type":"Feature","properties":{"osmId":"way/1490081593","kind":"corridor","name":null,"level":"0","highway":"corridor"},"geometry":{"type":"LineString","coordinates":[[80.232214,26.510938],[80.23219,26.510938]]}},{"type":"Feature","properties":{"osmId":"way/1490081594","kind":"corridor","name":null,"level":"0","highway":"corridor"},"geometry":{"type":"LineString","coordinates":[[80.232237,26.511004],[80.23222,26.510974],[80.232214,26.510938],[80.232218,26.510906],[80.232235,26.510874],[80.232261,26.510847],[80.232295,26.510829],[80.232333,26.510821],[80.232372,26.510824],[80.232407,26.510836],[80.232437,26.510858],[80.232459,26.510886],[80.232469,26.510911],[80.232472,26.510938],[80.232469,26.510965],[80.232458,26.51099],[80.232436,26.511017],[80.232406,26.511038],[80.232371,26.51105],[80.232333,26.511052],[80.232296,26.511045],[80.232263,26.511028],[80.232237,26.511004]]}},{"type":"Feature","properties":{"osmId":"way/1555323734","kind":"corridor","name":null,"level":"1","highway":"corridor"},"geometry":{"type":"LineString","coordinates":[[80.23247,26.510951],[80.232576,26.510951]]}},{"type":"Feature","properties":{"osmId":"way/1555327398","kind":"corridor","name":null,"level":"0","highway":"footway"},"geometry":{"type":"LineString","coordinates":[[80.232635,26.511322],[80.23267,26.511284],[80.232681,26.511275],[80.232702,26.511254],[80.232721,26.511235],[80.232765,26.511227],[80.2329,26.511212],[80.23292,26.511214],[80.233079,26.511227],[80.233102,26.511253],[80.233154,26.511309],[80.23316,26.511377],[80.233165,26.511458],[80.233167,26.511474],[80.233095,26.51163],[80.233041,26.51163],[80.232955,26.511637],[80.232908,26.511641],[80.232838,26.511644],[80.232728,26.511648],[80.232653,26.511592],[80.232601,26.511475],[80.232609,26.511438],[80.232635,26.511322]]}},{"type":"Feature","properties":{"osmId":"way/1555327399","kind":"corridor","name":null,"level":"1","highway":"footway"},"geometry":{"type":"LineString","coordinates":[[80.232941,26.51154],[80.232941,26.511518]]}},{"type":"Feature","properties":{"osmId":"way/1555327400","kind":"corridor","name":null,"level":"1","highway":"footway"},"geometry":{"type":"LineString","coordinates":[[80.232855,26.511541],[80.232854,26.511518]]}},{"type":"Feature","properties":{"osmId":"way/1555327401","kind":"corridor","name":null,"level":"1","highway":"footway"},"geometry":{"type":"LineString","coordinates":[[80.232893,26.511519],[80.232889,26.511464],[80.232894,26.511421]]}},{"type":"Feature","properties":{"osmId":"way/1555327402","kind":"corridor","name":null,"level":"1","highway":"footway"},"geometry":{"type":"LineString","coordinates":[[80.232727,26.511495],[80.232682,26.511433],[80.232705,26.511373],[80.232798,26.511318],[80.232896,26.511309],[80.233001,26.511312],[80.233076,26.511332],[80.233091,26.511407],[80.233091,26.511439],[80.233075,26.511515],[80.233077,26.51161],[80.23308,26.511711]]}},{"type":"Feature","properties":{"osmId":"way/1555327404","kind":"corridor","name":null,"level":"1","highway":"footway"},"geometry":{"type":"LineString","coordinates":[[80.232871,26.511166],[80.232902,26.511165],[80.232939,26.511161]]}},{"type":"Feature","properties":{"osmId":"way/1555327405","kind":"corridor","name":null,"level":"1","highway":"footway"},"geometry":{"type":"LineString","coordinates":[[80.233201,26.511428],[80.233196,26.51145],[80.233192,26.511477]]}},{"type":"Feature","properties":{"osmId":"way/1555327406","kind":"corridor","name":null,"level":"1","highway":"footway"},"geometry":{"type":"LineString","coordinates":[[80.232626,26.511476],[80.232619,26.511453],[80.232622,26.511424]]}},{"type":"Feature","properties":{"osmId":"way/1555327407","kind":"stairs","name":null,"level":"0;1","highway":"steps"},"geometry":{"type":"LineString","coordinates":[[80.233308,26.511451],[80.233243,26.51145]]}},{"type":"Feature","properties":{"osmId":"way/1555327408","kind":"corridor","name":null,"level":"1","highway":"footway"},"geometry":{"type":"LineString","coordinates":[[80.233048,26.511423],[80.233091,26.511439],[80.233119,26.511449],[80.233196,26.51145],[80.233211,26.51145],[80.233243,26.51145]]}},{"type":"Feature","properties":{"osmId":"way/1555327409","kind":"stairs","name":null,"level":"0;1","highway":"steps"},"geometry":{"type":"LineString","coordinates":[[80.232494,26.51145],[80.232553,26.511453]]}},{"type":"Feature","properties":{"osmId":"way/1555327410","kind":"corridor","name":null,"level":"1","highway":"footway"},"geometry":{"type":"LineString","coordinates":[[80.232894,26.511421],[80.232896,26.511309],[80.2329,26.511212],[80.232902,26.511165],[80.232904,26.511119]]}},{"type":"Feature","properties":{"osmId":"way/1555327411","kind":"stairs","name":null,"level":"1;0","highway":"steps"},"geometry":{"type":"LineString","coordinates":[[80.232905,26.511065],[80.232904,26.511119]]}},{"type":"Feature","properties":{"osmId":"way/1555329037","kind":"corridor","name":null,"level":"0","highway":"footway"},"geometry":{"type":"LineString","coordinates":[[80.233165,26.511458],[80.233226,26.511455],[80.233308,26.511451]]}},{"type":"Feature","properties":{"osmId":"way/1555329038","kind":"corridor","name":null,"level":"0","highway":"footway"},"geometry":{"type":"LineString","coordinates":[[80.232923,26.511373],[80.232609,26.511438],[80.232589,26.51144],[80.232494,26.51145]]}},{"type":"Feature","properties":{"osmId":"way/1555329039","kind":"corridor","name":null,"level":"0","highway":"footway"},"geometry":{"type":"LineString","coordinates":[[80.232635,26.511322],[80.23267,26.511284],[80.232681,26.511275],[80.232702,26.511254],[80.232721,26.511235],[80.232765,26.511227],[80.2329,26.511212],[80.23292,26.511214],[80.233079,26.511227],[80.233102,26.511253],[80.233154,26.511309],[80.23316,26.511377],[80.233165,26.511458],[80.233167,26.511474],[80.233095,26.51163],[80.233041,26.51163],[80.232955,26.511637],[80.232908,26.511641],[80.232838,26.511644],[80.232728,26.511648],[80.232653,26.511592],[80.232601,26.511475],[80.232609,26.511438],[80.232635,26.511322]]}},{"type":"Feature","properties":{"osmId":"way/1555329040","kind":"corridor","name":null,"level":"1","highway":"footway"},"geometry":{"type":"LineString","coordinates":[[80.232941,26.51154],[80.232941,26.511518]]}},{"type":"Feature","properties":{"osmId":"way/1555329041","kind":"corridor","name":null,"level":"1","highway":"footway"},"geometry":{"type":"LineString","coordinates":[[80.232855,26.511541],[80.232854,26.511518]]}},{"type":"Feature","properties":{"osmId":"way/1555329042","kind":"connector","name":null,"level":"1;0","highway":"footway"},"geometry":{"type":"LineString","coordinates":[[80.232893,26.511519],[80.232889,26.511464],[80.232894,26.511421]]}},{"type":"Feature","properties":{"osmId":"way/1555329043","kind":"connector","name":null,"level":"1;0","highway":"footway"},"geometry":{"type":"LineString","coordinates":[[80.232655,26.51173],[80.232727,26.511495],[80.232682,26.511433],[80.232705,26.511373],[80.232798,26.511318],[80.232896,26.511309],[80.233001,26.511312],[80.233076,26.511332],[80.233091,26.511407],[80.233091,26.511439],[80.233075,26.511515]]}},{"type":"Feature","properties":{"osmId":"way/1555329045","kind":"corridor","name":null,"level":"1","highway":"footway"},"geometry":{"type":"LineString","coordinates":[[80.232871,26.511166],[80.232902,26.511165],[80.232939,26.511161]]}},{"type":"Feature","properties":{"osmId":"way/1555329046","kind":"corridor","name":null,"level":"1","highway":"footway"},"geometry":{"type":"LineString","coordinates":[[80.233201,26.511428],[80.233196,26.51145],[80.233192,26.511477]]}},{"type":"Feature","properties":{"osmId":"way/1555329047","kind":"corridor","name":null,"level":"1","highway":"footway"},"geometry":{"type":"LineString","coordinates":[[80.232626,26.511476],[80.232619,26.511453],[80.232622,26.511424]]}},{"type":"Feature","properties":{"osmId":"way/1555329048","kind":"stairs","name":null,"level":"0;1","highway":"steps"},"geometry":{"type":"LineString","coordinates":[[80.233308,26.511451],[80.233243,26.51145]]}},{"type":"Feature","properties":{"osmId":"way/1555329049","kind":"connector","name":null,"level":"1;0","highway":"footway"},"geometry":{"type":"LineString","coordinates":[[80.233048,26.511423],[80.233091,26.511439],[80.233119,26.511449],[80.233196,26.51145],[80.233211,26.51145],[80.233243,26.51145]]}},{"type":"Feature","properties":{"osmId":"way/1555329050","kind":"stairs","name":null,"level":"0;1","highway":"steps"},"geometry":{"type":"LineString","coordinates":[[80.232494,26.51145],[80.232553,26.511453]]}},{"type":"Feature","properties":{"osmId":"way/1555329051","kind":"connector","name":null,"level":"1;0","highway":"footway"},"geometry":{"type":"LineString","coordinates":[[80.232894,26.511421],[80.232896,26.511309],[80.2329,26.511212],[80.232902,26.511165],[80.232904,26.511119]]}},{"type":"Feature","properties":{"osmId":"way/1555329052","kind":"corridor","name":null,"level":"0","highway":"footway"},"geometry":{"type":"LineString","coordinates":[[80.232923,26.511373],[80.23292,26.511214],[80.232917,26.511183],[80.232905,26.511065],[80.232904,26.511119]]}},{"type":"Feature","properties":{"osmId":"way/1555329814","kind":"corridor","name":null,"level":"0","highway":"footway"},"geometry":{"type":"LineString","coordinates":[[80.232322,26.511209],[80.232398,26.511225],[80.232437,26.511233],[80.232681,26.511275]]}},{"type":"Feature","properties":{"osmId":"way/1555338792","kind":"corridor","name":null,"level":"0","highway":"footway"},"geometry":{"type":"LineString","coordinates":[[80.232872,26.510934],[80.232602,26.510929]]}},{"type":"Feature","properties":{"osmId":"way/1555338793","kind":"corridor","name":null,"level":"0","highway":"footway"},"geometry":{"type":"LineString","coordinates":[[80.232905,26.511065],[80.232917,26.510983]]}},{"type":"Feature","properties":{"osmId":"way/1555338794","kind":"corridor","name":null,"level":"0","highway":"footway"},"geometry":{"type":"LineString","coordinates":[[80.232765,26.511227],[80.23272,26.511119]]}},{"type":"Feature","properties":{"osmId":"way/1555338795","kind":"corridor","name":null,"level":"1","highway":"corridor"},"geometry":{"type":"LineString","coordinates":[[80.232631,26.511183],[80.232602,26.510929]]}},{"type":"Feature","properties":{"osmId":"way/1555338796","kind":"stairs","name":null,"level":"0;1","highway":"steps"},"geometry":{"type":"LineString","coordinates":[[80.232602,26.510929],[80.232578,26.510935]]}},{"type":"Feature","properties":{"osmId":"way/1555338797","kind":"connector","name":null,"level":"0;1","highway":"footway"},"geometry":{"type":"LineString","coordinates":[[80.23272,26.511119],[80.232696,26.511011],[80.232673,26.511018],[80.232701,26.511139],[80.232646,26.511183],[80.232631,26.511183],[80.232609,26.511183],[80.232577,26.510934]]}},{"type":"Feature","properties":{"osmId":"way/1555343350","kind":"connector","name":null,"level":"0;1","highway":"footway"},"geometry":{"type":"LineString","coordinates":[[80.233518,26.512328],[80.233497,26.512327],[80.233472,26.512326],[80.23327,26.512326],[80.233268,26.512343],[80.233452,26.512347],[80.233449,26.512375]]}},{"type":"Feature","properties":{"osmId":"way/1555343352","kind":"stairs","name":null,"level":"0;1","highway":"steps"},"geometry":{"type":"LineString","coordinates":[[80.234007,26.512379],[80.234007,26.512418],[80.234011,26.512294],[80.234014,26.512268]]}},{"type":"Feature","properties":{"osmId":"way/1555343354","kind":"stairs","name":null,"level":"0;1","highway":"steps"},"geometry":{"type":"LineString","coordinates":[[80.232648,26.512377],[80.232647,26.512394],[80.232646,26.512414],[80.232646,26.512421]]}},{"type":"Feature","properties":{"osmId":"way/1555343355","kind":"stairs","name":null,"level":"0;1","highway":"steps"},"geometry":{"type":"LineString","coordinates":[[80.232957,26.511686],[80.232955,26.511637]]}},{"type":"Feature","properties":{"osmId":"way/1555343356","kind":"stairs","name":null,"level":"0;1","highway":"steps"},"geometry":{"type":"LineString","coordinates":[[80.232841,26.511689],[80.232838,26.511644]]}},{"type":"Feature","properties":{"osmId":"way/1555343357","kind":"corridor","name":null,"level":"1","highway":"footway"},"geometry":{"type":"LineString","coordinates":[[80.233077,26.51161],[80.233039,26.511614]]}},{"type":"Feature","properties":{"osmId":"way/1555343358","kind":"stairs","name":null,"level":"0;1","highway":"steps"},"geometry":{"type":"LineString","coordinates":[[80.233007,26.511617],[80.233039,26.511614],[80.233041,26.51163]]}},{"type":"Feature","properties":{"osmId":"way/1555343359","kind":"corridor","name":null,"level":"1","highway":"footway"},"geometry":{"type":"LineString","coordinates":[[80.232685,26.511207],[80.232704,26.511195]]}},{"type":"Feature","properties":{"osmId":"way/1555343360","kind":"stairs","name":null,"level":"0;1","highway":"steps"},"geometry":{"type":"LineString","coordinates":[[80.23273,26.511182],[80.232704,26.511195],[80.232721,26.511235]]}},{"type":"Feature","properties":{"osmId":"way/1555343361","kind":"connector","name":null,"level":"1;0","highway":"footway"},"geometry":{"type":"LineString","coordinates":[[80.232705,26.511373],[80.232689,26.511241],[80.232685,26.511207],[80.232631,26.511183]]}},{"type":"Feature","properties":{"osmId":"way/1555343362","kind":"corridor","name":null,"level":"1","highway":"footway"},"geometry":{"type":"LineString","coordinates":[[80.232941,26.511518],[80.232893,26.511519],[80.232874,26.511518],[80.232854,26.511518]]}},{"type":"Feature","properties":{"osmId":"way/1555343363","kind":"corridor","name":null,"level":"1","highway":"footway"},"geometry":{"type":"LineString","coordinates":[[80.232941,26.511518],[80.232893,26.511519],[80.232874,26.511518],[80.232854,26.511518]]}},{"type":"Feature","properties":{"osmId":"way/1555343364","kind":"corridor","name":null,"level":"0","highway":"footway"},"geometry":{"type":"LineString","coordinates":[[80.233089,26.51179],[80.23308,26.511711],[80.233095,26.51163]]}},{"type":"Feature","properties":{"osmId":"way/1555343365","kind":"corridor","name":null,"level":"0","highway":"footway"},"geometry":{"type":"LineString","coordinates":[[80.232891,26.511793],[80.232908,26.511641]]}},{"type":"Feature","properties":{"osmId":"way/1555343366","kind":"corridor","name":null,"level":"0","highway":"footway"},"geometry":{"type":"LineString","coordinates":[[80.232704,26.511797],[80.232728,26.511648]]}},{"type":"Feature","properties":{"osmId":"way/1555343367","kind":"corridor","name":null,"level":"0","highway":"footway"},"geometry":{"type":"LineString","coordinates":[[80.232908,26.511641],[80.232923,26.511373]]}},{"type":"Feature","properties":{"osmId":"way/1555343368","kind":"corridor","name":null,"level":"0","highway":"footway"},"geometry":{"type":"LineString","coordinates":[[80.23316,26.511377],[80.232923,26.511373]]}},{"type":"Feature","properties":{"osmId":"way/1555343369","kind":"corridor","name":null,"level":"0","highway":"footway"},"geometry":{"type":"LineString","coordinates":[[80.232398,26.511225],[80.232396,26.511203],[80.232394,26.511167]]}},{"type":"Feature","properties":{"osmId":"way/1555345740","kind":"connector","name":null,"level":"1;0","highway":"footway"},"geometry":{"type":"LineString","coordinates":[[80.233149,26.51085],[80.233255,26.511007]]}},{"type":"Feature","properties":{"osmId":"way/1555345741","kind":"stairs","name":null,"level":"0;1","highway":"steps"},"geometry":{"type":"LineString","coordinates":[[80.233278,26.510983],[80.233255,26.511007]]}},{"type":"Feature","properties":{"osmId":"way/1555345742","kind":"corridor","name":null,"level":"1","highway":"footway"},"geometry":{"type":"LineString","coordinates":[[80.233328,26.511118],[80.233351,26.511095],[80.233375,26.511079]]}},{"type":"Feature","properties":{"osmId":"way/1555345743","kind":"corridor","name":null,"level":"1","highway":"footway"},"geometry":{"type":"LineString","coordinates":[[80.233436,26.511221],[80.233464,26.511202],[80.233486,26.511188]]}},{"type":"Feature","properties":{"osmId":"way/1555345744","kind":"stairs","name":null,"level":"0;1","highway":"steps"},"geometry":{"type":"LineString","coordinates":[[80.233518,26.511253],[80.233551,26.511278]]}},{"type":"Feature","properties":{"osmId":"way/1555346027","kind":"corridor","name":null,"level":"1","highway":"footway"},"geometry":{"type":"LineString","coordinates":[[80.233758,26.510765],[80.23375,26.510737]]}},{"type":"Feature","properties":{"osmId":"way/1555346028","kind":"corridor","name":null,"level":"1","highway":"footway"},"geometry":{"type":"LineString","coordinates":[[80.233652,26.510783],[80.233651,26.510752]]}},{"type":"Feature","properties":{"osmId":"way/1555346029","kind":"corridor","name":null,"level":"1","highway":"footway"},"geometry":{"type":"LineString","coordinates":[[80.233482,26.510775],[80.233488,26.510752]]}},{"type":"Feature","properties":{"osmId":"way/1555346030","kind":"corridor","name":null,"level":"1","highway":"footway"},"geometry":{"type":"LineString","coordinates":[[80.233397,26.510759],[80.233407,26.510737]]}},{"type":"Feature","properties":{"osmId":"way/1555346031","kind":"stairs","name":null,"level":"0;1","highway":"steps"},"geometry":{"type":"LineString","coordinates":[[80.233582,26.510561],[80.233581,26.51062]]}},{"type":"Feature","properties":{"osmId":"way/1555346032","kind":"connector","name":null,"level":"1;0","highway":"footway"},"geometry":{"type":"LineString","coordinates":[[80.233568,26.510778],[80.233583,26.510666],[80.233581,26.51062]]}},{"type":"Feature","properties":{"osmId":"way/1555346033","kind":"corridor","name":null,"level":"1","highway":"footway"},"geometry":{"type":"LineString","coordinates":[[80.233544,26.510669],[80.233583,26.510666],[80.233612,26.510665]]}},{"type":"Feature","properties":{"osmId":"way/1555346034","kind":"connector","name":null,"level":"1;0","highway":"footway"},"geometry":{"type":"LineString","coordinates":[[80.233326,26.510735],[80.233383,26.510756],[80.233397,26.510759],[80.233449,26.510772],[80.233482,26.510775],[80.233525,26.510779],[80.233568,26.510778],[80.233584,26.51078],[80.233624,26.510785],[80.233638,26.510784],[80.233652,26.510783],[80.233706,26.510779],[80.233758,26.510765],[80.233799,26.510754],[80.233835,26.510743]]}},{"type":"Feature","properties":{"osmId":"way/1555349350","kind":"stairs","name":null,"level":"0;1","highway":"steps"},"geometry":{"type":"LineString","coordinates":[[80.233799,26.510754],[80.233794,26.510689]]}},{"type":"Feature","properties":{"osmId":"way/1555349351","kind":"stairs","name":null,"level":"0;1","highway":"steps"},"geometry":{"type":"LineString","coordinates":[[80.233638,26.510784],[80.233637,26.510713]]}},{"type":"Feature","properties":{"osmId":"way/1555349352","kind":"stairs","name":null,"level":"0;1","highway":"steps"},"geometry":{"type":"LineString","coordinates":[[80.233525,26.510779],[80.233528,26.510714]]}},{"type":"Feature","properties":{"osmId":"way/1555349353","kind":"stairs","name":null,"level":"0;1","highway":"steps"},"geometry":{"type":"LineString","coordinates":[[80.233367,26.510686],[80.233326,26.510735]]}},{"type":"Feature","properties":{"osmId":"way/1555349355","kind":"corridor","name":null,"level":"0","highway":"footway"},"geometry":{"type":"LineString","coordinates":[[80.232592,26.512377],[80.233519,26.512375],[80.234176,26.51238],[80.234413,26.512382],[80.234725,26.512385],[80.234765,26.512036],[80.234777,26.511655],[80.234793,26.511039],[80.234472,26.511034]]}},{"type":"Feature","properties":{"osmId":"way/1555349356","kind":"connector","name":"IITK Academic Area Corridors","level":"1;0","highway":"footway"},"geometry":{"type":"LineString","coordinates":[[80.232648,26.512377],[80.231345,26.512371]]}},{"type":"Feature","properties":{"osmId":"way/1555349357","kind":"corridor","name":null,"level":"0","highway":"footway"},"geometry":{"type":"LineString","coordinates":[[80.233367,26.510686],[80.23337,26.510683],[80.233424,26.510713],[80.233495,26.510714],[80.233528,26.510714],[80.233599,26.510713],[80.233637,26.510713],[80.233708,26.510706],[80.233794,26.510689]]}},{"type":"Feature","properties":{"osmId":"way/1555349505","kind":"stairs","name":null,"level":"2","highway":"steps"},"geometry":{"type":"LineString","coordinates":[[80.234174,26.510643],[80.234183,26.510638]]}},{"type":"Feature","properties":{"osmId":"node/2734116498","kind":"door","level":"0","name":null},"geometry":{"type":"Point","coordinates":[80.232578,26.510935]}},{"type":"Feature","properties":{"osmId":"node/13647137535","kind":"door","level":"1","name":null},"geometry":{"type":"Point","coordinates":[80.233483,26.511186]}},{"type":"Feature","properties":{"osmId":"node/13647137536","kind":"door","level":"0","name":null},"geometry":{"type":"Point","coordinates":[80.233371,26.511075]}},{"type":"Feature","properties":{"osmId":"node/13647137538","kind":"door","level":"1","name":null},"geometry":{"type":"Point","coordinates":[80.233515,26.511215]}},{"type":"Feature","properties":{"osmId":"node/13647137539","kind":"door","level":"0","name":null},"geometry":{"type":"Point","coordinates":[80.233325,26.511116]}},{"type":"Feature","properties":{"osmId":"node/13647137541","kind":"door","level":"1","name":null},"geometry":{"type":"Point","coordinates":[80.233474,26.511255]}},{"type":"Feature","properties":{"osmId":"node/13647137542","kind":"door","level":"1","name":null},"geometry":{"type":"Point","coordinates":[80.233431,26.511217]}},{"type":"Feature","properties":{"osmId":"node/13647137545","kind":"door","level":"0","name":null},"geometry":{"type":"Point","coordinates":[80.233365,26.511151]}},{"type":"Feature","properties":{"osmId":"node/13647137550","kind":"door","level":"1","name":null},"geometry":{"type":"Point","coordinates":[80.233408,26.51111]}},{"type":"Feature","properties":{"osmId":"node/13648953918","kind":"door","level":"1","name":null},"geometry":{"type":"Point","coordinates":[80.233371,26.511076]}},{"type":"Feature","properties":{"osmId":"node/13648953920","kind":"door","level":"1","name":null},"geometry":{"type":"Point","coordinates":[80.233365,26.511151]}},{"type":"Feature","properties":{"osmId":"node/13648953923","kind":"door","level":"1","name":null},"geometry":{"type":"Point","coordinates":[80.233325,26.511116]}},{"type":"Feature","properties":{"osmId":"node/13649039184","kind":"door","level":"0","name":null},"geometry":{"type":"Point","coordinates":[80.232262,26.510819]}},{"type":"Feature","properties":{"osmId":"node/13649039187","kind":"door","level":"1","name":null},"geometry":{"type":"Point","coordinates":[80.232397,26.510804]}},{"type":"Feature","properties":{"osmId":"node/13649039193","kind":"door","level":"1","name":null},"geometry":{"type":"Point","coordinates":[80.232472,26.510855]}},{"type":"Feature","properties":{"osmId":"node/13649048305","kind":"door","level":"1","name":null},"geometry":{"type":"Point","coordinates":[80.232226,26.510845]}},{"type":"Feature","properties":{"osmId":"node/13649048306","kind":"door","level":"1","name":null},"geometry":{"type":"Point","coordinates":[80.232265,26.511056]}},{"type":"Feature","properties":{"osmId":"node/13649048322","kind":"door","level":"0","name":null},"geometry":{"type":"Point","coordinates":[80.232399,26.511071]}},{"type":"Feature","properties":{"osmId":"node/13649048326","kind":"door","level":"1","name":null},"geometry":{"type":"Point","coordinates":[80.23223,26.51103]}},{"type":"Feature","properties":{"osmId":"node/13649048331","kind":"door","level":"1","name":null},"geometry":{"type":"Point","coordinates":[80.232355,26.510794]}},{"type":"Feature","properties":{"osmId":"node/13649048364","kind":"door","level":"1","name":null},"geometry":{"type":"Point","coordinates":[80.232478,26.511017]}},{"type":"Feature","properties":{"osmId":"node/13649048372","kind":"door","level":"1","name":null},"geometry":{"type":"Point","coordinates":[80.232354,26.511079]}},{"type":"Feature","properties":{"osmId":"node/13649048394","kind":"door","level":"1","name":null},"geometry":{"type":"Point","coordinates":[80.232489,26.510935]}},{"type":"Feature","properties":{"osmId":"node/13649048398","kind":"door","level":"1","name":null},"geometry":{"type":"Point","coordinates":[80.232192,26.51096]}},{"type":"Feature","properties":{"osmId":"node/13649048439","kind":"door","level":"1","name":null},"geometry":{"type":"Point","coordinates":[80.232191,26.510916]}},{"type":"Feature","properties":{"osmId":"node/13657838577","kind":"door","level":"1","name":null},"geometry":{"type":"Point","coordinates":[80.232226,26.510844]}},{"type":"Feature","properties":{"osmId":"node/13657840001","kind":"door","level":"1","name":null},"geometry":{"type":"Point","coordinates":[80.232355,26.510794]}},{"type":"Feature","properties":{"osmId":"node/13657840007","kind":"door","level":"1","name":null},"geometry":{"type":"Point","coordinates":[80.232388,26.511141]}},{"type":"Feature","properties":{"osmId":"node/13657840009","kind":"door","level":"1","name":null},"geometry":{"type":"Point","coordinates":[80.2324,26.511071]}},{"type":"Feature","properties":{"osmId":"node/13657840019","kind":"door","level":"1","name":null},"geometry":{"type":"Point","coordinates":[80.232489,26.510935]}},{"type":"Feature","properties":{"osmId":"node/13657840026","kind":"door","level":"1","name":null},"geometry":{"type":"Point","coordinates":[80.232262,26.510819]}},{"type":"Feature","properties":{"osmId":"node/13657840088","kind":"door","level":"0","name":null},"geometry":{"type":"Point","coordinates":[80.232388,26.511141]}},{"type":"Feature","properties":{"osmId":"node/14152492797","kind":"door","level":"1","name":null},"geometry":{"type":"Point","coordinates":[80.232577,26.510934]}},{"type":"Feature","properties":{"osmId":"node/14152528243","kind":"door","level":"1","name":null},"geometry":{"type":"Point","coordinates":[80.233375,26.511079]}},{"type":"Feature","properties":{"osmId":"node/14152528245","kind":"door","level":"1","name":null},"geometry":{"type":"Point","coordinates":[80.233328,26.511118]}},{"type":"Feature","properties":{"osmId":"node/14152528246","kind":"door","level":"1","name":null},"geometry":{"type":"Point","coordinates":[80.233486,26.511188]}},{"type":"Feature","properties":{"osmId":"node/14152528248","kind":"door","level":"1","name":null},"geometry":{"type":"Point","coordinates":[80.233436,26.511221]}},{"type":"Feature","properties":{"osmId":"node/14152575269","kind":"door","level":"2","name":null},"geometry":{"type":"Point","coordinates":[80.234455,26.510783]}},{"type":"Feature","properties":{"osmId":"node/14152575270","kind":"door","level":"2","name":null},"geometry":{"type":"Point","coordinates":[80.234438,26.510929]}},{"type":"Feature","properties":{"osmId":"node/14152575271","kind":"door","level":"2","name":null},"geometry":{"type":"Point","coordinates":[80.234198,26.510637]}},{"type":"Feature","properties":{"osmId":"node/14152575272","kind":"door","level":"2","name":null},"geometry":{"type":"Point","coordinates":[80.234059,26.510738]}},{"type":"Feature","properties":{"osmId":"node/14152575273","kind":"door","level":"0","name":null},"geometry":{"type":"Point","coordinates":[80.234458,26.510756]}},{"type":"Feature","properties":{"osmId":"node/14152575274","kind":"door","level":"0","name":null},"geometry":{"type":"Point","coordinates":[80.234189,26.510644]}},{"type":"Feature","properties":{"osmId":"node/14152575275","kind":"door","level":"0","name":null},"geometry":{"type":"Point","coordinates":[80.234387,26.511006]}},{"type":"Feature","properties":{"osmId":"node/14152575276","kind":"door","level":"0","name":null},"geometry":{"type":"Point","coordinates":[80.234217,26.510971]}},{"type":"Feature","properties":{"osmId":"node/14152575277","kind":"door","level":"0","name":null},"geometry":{"type":"Point","coordinates":[80.234115,26.510913]}},{"type":"Feature","properties":{"osmId":"node/14152575278","kind":"door","level":"0","name":null},"geometry":{"type":"Point","coordinates":[80.234025,26.510828]}},{"type":"Feature","properties":{"osmId":"node/14152575280","kind":"door","level":"2","name":null},"geometry":{"type":"Point","coordinates":[80.234308,26.511007]}},{"type":"Feature","properties":{"osmId":"node/14152575283","kind":"door","level":"2","name":null},"geometry":{"type":"Point","coordinates":[80.234073,26.510881]}}]}